X,Y,neighborhood_id,neighborhood_name,device_serial,device_connectedto,device_address,device_lat,device_long,device_tags,etl_updatedtimestamp,is_current,org1,org2,inside_outside,landmark,ObjectId
,,L_601230550253963849,Mobile WiFi Kit 1,Q3AK-SUL7-7FC4,MR76-1,,,,[],2024/08/20 04:31:34+00,1,,,,,1
,,L_601230550253963849,Mobile WiFi Kit 1,Q2ZY-RF99-YN45,MG41-1,,,,[],2024/08/20 04:31:34+00,1,,,,,2
-7912255.43676079,5206227.69848915,L_601230550253964116,Nubian-Bus-Stop,Q3AE-QFTK-E55W,ROX-Nubian-AP1,"247 Washington St, Boston, MA 02121",42.3013503380001,-71.076999907,['recently-added'],2024/08/20 04:31:38+00,1,,,,,3
,,L_601230550253964116,Nubian-Bus-Stop,Q3AK-DU9C-2UXZ,ROX-Nubian_AP6,,,,[],2024/08/20 04:31:38+00,1,,,,,4
,,L_601230550253964116,Nubian-Bus-Stop,Q3AK-FGAN-3AR9,ROX-Nubian_AP7,,,,[],2024/08/20 04:31:38+00,1,,,,,5
-7913036.89914088,5209641.87977671,N_568579452955527921,Parks,Q2EK-4PWN-GALS,PARKS-FRANKLIN_CLUBHOUSE-MR84-AP1,"1 Circuit Dr., Roxbury, MA",42.324030334,-71.084019903,['recently-added'],2024/08/20 04:31:39+00,1,,,,,6
-7913800.32787478,5210827.64729927,N_579275502070532581,Roxbury,Q2CK-SSY2-PBYW,ROX-Madison Park-HS-AP1,"75 Malcolm X Blvd, Boston, MA 02120",42.3319053330001,-71.0908779,['recently-added'],2024/08/20 04:31:43+00,1,,,,,7
-7913800.32787478,5210827.64729927,N_579275502070532581,Roxbury,Q2CK-SU8N-5VU8,ROX-Madison Park-HS-AP3,"75 Malcolm X Blvd, Boston, MA 02120",42.3319053330001,-71.0908779,['recently-added'],2024/08/20 04:31:43+00,1,,,,,8
-7913465.7017081,5208391.22542626,N_579275502070532581,Roxbury,Q2CK-H5VS-5UKS,ROX-TROTTER-AP1,"135 Humboldt Ave., Roxbury, MA",42.3157233360001,-71.087871902,"['BPS', 'Outside', 'Trotter-School']",2024/08/20 04:31:43+00,1,BPS,,Outside,Trotter School,9
-7913720.67889044,5209400.67907213,N_579275502070532581,Roxbury,Q2CK-NU6F-VDER,ROX-SHELBURNE-AP1,"2730 Washington St., Roxbury, MA",42.322428335,-71.090162401,"['BCYF/BPL', 'Outside', 'Shelbourne-Comm-Center']",2024/08/20 04:31:43+00,1,BCYF,BPL,Outside,Shelbourne Comm Center,10
-7913720.67889044,5209400.67907213,N_579275502070532581,Roxbury,Q2CK-DPQP-RN6X,ROX-SHELBURNE-AP2,"2730 Washington St., Roxbury, MA",42.322428335,-71.090162401,"['BCYF/BPL', 'Outside', 'Shelbourne-Comm-Center']",2024/08/20 04:31:43+00,1,BCYF,BPL,Outside,Shelbourne Comm Center,11
-7911615.73930695,5209957.61811713,N_579275502070532581,Roxbury,Q2CK-F2BB-S6RY,ROX-MASON-AP1,"150 Norfolk Ave., Roxbury, MA",42.326127333,-71.071253407,['recently-added'],2024/08/20 04:31:43+00,1,,,,,12
-7912102.65064836,5208763.8299249,N_579275502070532581,Roxbury,Q2CK-6B8Q-V8DD,ROX-WINTHROP-AP2,"35 Brookford St., Roxbury, MA",42.318198335,-71.075627406,"['BPS', 'Outside', 'Winthrop-School']",2024/08/20 04:31:43+00,1,BPS,,Outside,Winthrop School,13
-7912078.10481195,5207385.94359047,N_579275502070532581,Roxbury,Q2CK-74V2-BS4Q,ROX-FREDERICK-AP1,"270 Columbia Rd., Dorchester, MA",42.309045337,-71.0754069069999,"['BPS', 'Frederick-Pilot-School', 'Outside']",2024/08/20 04:31:43+00,1,BPS,,Outside,Frederick Pilot School,14
-7912879.103874,5207368.33178398,N_579275502070532581,Roxbury,Q2CK-649T-2WQZ,ROX-GROVEHALL-AP7,"476 Blue Hill Ave., Roxbury, MA",42.3089283370001,-71.0826024039999,"['BPL', 'Grove-Hall', 'Outside']",2024/08/20 04:31:43+00,1,BPL,,Outside,Grove Hall,15
-7912356.62595528,5210580.99539578,N_579275502070532581,Roxbury,Q2CK-HDFV-VYBC,ROX-ORCHARD-AP2,"906 Albany St., Roxbury, MA",42.3302673330001,-71.077908905,"['BPS', 'Orchard-Garden-School', 'Outside', 'recently-added']",2024/08/20 04:31:43+00,1,BPS,,Outside,Orchard Garden School,16
-7912102.65064836,5208763.8299249,N_579275502070532581,Roxbury,Q2CK-5PKB-8LG8,ROX-WINTHROP-AP1,"35 Brookford St., Roxbury, MA",42.318198335,-71.075627406,"['BPS', 'Outside', 'Winthrop-School']",2024/08/20 04:31:43+00,1,BPS,,Outside,Winthrop School,17
-7912161.81108536,5207153.24503528,N_579275502070532581,Roxbury,Q2CK-64RA-6G66,ROX-FREDERICK-AP3,"Devon & Columbia Rd, Dorchester, MA",42.3074994399351,-71.0761588532478,"['BPS', 'Frederick-Pilot-School', 'Outside']",2024/08/20 04:31:43+00,1,BPS,,Outside,Frederick Pilot School,18
-7912845.81611863,5210316.93276757,N_579275502070532581,Roxbury,Q2CK-SF4S-8JL2,ROX-BFDE14-AP3,On pole across from BFD Engine 14,42.3285136621772,-71.0823033750057,"['BFD', 'Engine-14', 'Outside']",2024/08/20 04:31:43+00,1,BFD,,Outside,Engine 14,19
-7912905.4304883,5207508.75493876,N_579275502070532581,Roxbury,Q2CK-CYFR-SFMF,ROX-GROVEHALL-AP4,"683 Warren St., Roxbury, MA",42.3098612,-71.0828389,"['BPL', 'Grove-Hall', 'Outside']",2024/08/20 04:31:43+00,1,BPL,,Outside,Grove Hall,20
-7912857.56344122,5210361.45350015,N_579275502070532581,Roxbury,Q2CK-MR56-4QY6,ROX-BFDE14-AP2,"174 Dudley St., Roxbury, MA - Front Roof Facing Dudley St",42.328809333,-71.082408903,"['BFD', 'Engine-14', 'Outside']",2024/08/20 04:31:43+00,1,BFD,,Outside,Engine 14,21
-7912857.56344122,5210361.45350015,N_579275502070532581,Roxbury,Q2CK-SDQD-U3MQ,ROX-BFDE14-AP1,"174 Dudley St., Roxbury, MA - Rear Roof Facing Palmer Street",42.328809333,-71.082408903,"['BFD', 'Engine-14', 'Outside']",2024/08/20 04:31:43+00,1,BFD,,Outside,Engine 14,22
-7912102.65064836,5208763.8299249,N_579275502070532581,Roxbury,Q2CK-5S3K-8KFF,ROX-WINTHROP-AP3,"35 Brookford St., Roxbury, MA",42.318198335,-71.075627406,"['BPS', 'Outside', 'Winthrop-School']",2024/08/20 04:31:43+00,1,BPS,,Outside,Winthrop School,23
,,L_601230550253963850,Mobile WiFi Kit 2,Q3AK-W3JB-ZWJ4,MR76-2,,,,[],2024/08/20 04:31:34+00,1,,,,,24
,,L_601230550253963850,Mobile WiFi Kit 2,Q2ZY-5UCW-5LFZ,MG41-2,,,,[],2024/08/20 04:31:34+00,1,,,,,25
-7912255.43676079,5206227.69848915,L_601230550253964116,Nubian-Bus-Stop,Q3AE-YCB2-9LEG,ROX-Nubian_AP3,"247 Washington St, Boston, MA 02121",42.3013503380001,-71.076999907,['recently-added'],2024/08/20 04:31:38+00,1,,,,,26
-7912255.43676079,5206227.69848915,L_601230550253964116,Nubian-Bus-Stop,Q3AE-HUNW-BPK6,ROX-Nubian-AP4,"247 Washington St, Boston, MA 02121",42.3013503380001,-71.076999907,['recently-added'],2024/08/20 04:31:38+00,1,,,,,27
-7912255.43676079,5206227.69848915,L_601230550253964116,Nubian-Bus-Stop,Q3AE-542B-MYJN,ROX-Nubian-AP5,"247 Washington St, Boston, MA 02121",42.3013503380001,-71.076999907,['recently-added'],2024/08/20 04:31:38+00,1,,,,,28
-7910979.22985955,5214437.3290008,N_568579452955527921,Parks,Q3AK-CVAE-CUZU,PARKS-COMMON-AP6,Boston Common,42.3558721251422,-71.0655355453491,[],2024/08/20 04:31:39+00,1,,,,,29
-7911607.07759896,5206605.34951248,N_568579452955534204,Dorchester,Q2CK-N5NK-M8VH,DOT-MATHER-AP2,"1 Meeting House Hill, Dorchester",42.303859430364,-71.0711755975533,['recently-added'],2024/08/20 04:31:39+00,1,,,,,30
-7918256.51388294,5198613.28987428,N_568579452955538316,Hyde Park,Q2CK-TSDP-WCWR,HP-BPDE18-AP4,"Corner of Business & River St, Hyde Park MA",42.2507393,-71.1309085,"['BPD', 'District', 'E-18', 'Outside']",2024/08/20 04:31:41+00,1,BPD,,Outside,District E 18,31
-7912345.79133615,5209022.30626039,N_579275502070532581,Roxbury,Q2CK-6JQN-FZR8,ROX-WINTHROP-AP4,"Waverley & Blue Hill Ave., Roxbury, MA",42.3199151885731,-71.0778115759604,"['BPS', 'Outside', 'Winthrop-School']",2024/08/20 04:31:43+00,1,BPS,,Outside,Winthrop School,32
-7912222.87558709,5210059.25306829,N_579275502070532581,Roxbury,Q2CK-NEZE-VRYJ,ROX-VINE-AP3,"339 Dudley St, Roxbury",42.326802334,-71.076707405,['recently-added'],2024/08/20 04:31:43+00,1,,,,,33
-7913220.7431686,5210304.53606156,N_579275502070532581,Roxbury,Q2CK-NU67-LP8V,ROX-BPDB2-AP1,"2400 Washington St., Roxbury, MA - Right Front Side Roof Facing Dudley MBTA",42.328431333,-71.0856714019999,"['BPD', 'District-B-2', 'Outside']",2024/08/20 04:31:43+00,1,BPD,,Outside,District B 2,34
-7913220.7431686,5210304.53606156,N_579275502070532581,Roxbury,Q2CK-NQHH-62DH,ROX-BPDB2-AP2,"2400 Washington St., Roxbury, MA - Left Side Rear Roof Facing Dudley & Washington",42.328431333,-71.0856714019999,"['BPD', 'District-B-2', 'Outside']",2024/08/20 04:31:43+00,1,BPD,,Outside,District B 2,35
-7911796.57781974,5209564.64063216,N_579275502070532581,Roxbury,Q2CK-NM86-CUTL,ROX-EMERSON-AP2,"6 SHIRLEY ST
 ROXBURY, MA 02119",42.323517334,-71.072877907,['recently-added'],2024/08/20 04:31:43+00,1,,,,,36
-7912502.74523777,5210300.21216763,N_579275502070532581,Roxbury,Q2CK-NF7G-GS7K,ROX-BFDE14-AP4,"Dudley St and Mt Pleasant Ave., Roxbury, MA",42.3284026170699,-71.0792215168476,"['BFD', 'Engine-14', 'Outside']",2024/08/20 04:31:43+00,1,BFD,,Outside,Engine 14,37
-7913220.7431686,5210304.53606156,N_579275502070532581,Roxbury,Q2CK-NPJ9-EDSZ,ROX-BPDB2-AP3,"2400 Washington St., Roxbury, MA - Left Side Facing Bartlett St",42.328431333,-71.0856714019999,"['BPD', 'District-B-2', 'Outside']",2024/08/20 04:31:43+00,1,BPD,,Outside,District B 2,38
-7912771.90331569,5207055.38898878,N_579275502070532581,Roxbury,Q2CK-NFVJ-3N86,ROX-BURKE-AP1,"60 Washington St.
Dorchester, MA 02121",42.3068493370001,-71.081639405,"['BPS', 'Jeremiah-Burke-School', 'Outside']",2024/08/20 04:31:43+00,1,BPS,,Outside,Jeremiah Burke School,39
-7911615.73930695,5209957.61811713,N_579275502070532581,Roxbury,Q2CK-HM2N-KPSM,ROX-MASON-AP2,"150 Norfolk Ave., Roxbury, MA",42.326127333,-71.071253407,['recently-added'],2024/08/20 04:31:43+00,1,,,,,40
-7912771.90331569,5207055.38898878,N_579275502070532581,Roxbury,Q2CK-NNVA-2639,ROX-BURKE-AP2,"60 Washington St.
Dorchester, MA 02121",42.3068493370001,-71.081639405,"['BPS', 'Jeremiah-Burke-School', 'Outside']",2024/08/20 04:31:43+00,1,BPS,,Outside,Jeremiah Burke School,41
-7912356.62595528,5210580.99539578,N_579275502070532581,Roxbury,Q2CK-VQ39-UL8G,ROX-ORCHARD-AP3,"906 Albany St., Roxbury, MA",42.3302673330001,-71.077908905,"['BPS', 'Orchard-Garden-School', 'Outside']",2024/08/20 04:31:43+00,1,BPS,,Outside,Orchard Garden School,42
,,L_601230550253963851,Mobile WiFi Kit 3,Q3AK-Q4UV-A3YH,MR76-3,,,,[],2024/08/20 04:31:35+00,1,,,,,43
-7912255.43676079,5206227.69848915,L_601230550253964116,Nubian-Bus-Stop,Q3AE-NN5V-PRPA,ROX-Nubian-AP2,"247 Washington St, Boston, MA 02121",42.3013503380001,-71.076999907,['recently-added'],2024/08/20 04:31:38+00,1,,,,,44
-7916707.22966667,5202882.20011551,N_568579452955527921,Parks,Q2AK-U4TT-J95L,PARKS-MTHOPE-AP1,"Mt Hope Cemetery, Hyde Park, MA - Cummings Hwy & Canterbury St",42.2791186669152,-71.1169910430908,"['Mount-Hope-Cemetery', 'Outside']",2024/08/20 04:31:39+00,1,,,Outside,Mount Hope Cemetery,45
-7913090.49947569,5208454.90590988,N_579275502070532581,Roxbury,Q2CK-GLBJ-XZRY,ROX-BLA-AP2,"205 Townsend St., Roxbury, MA - east side of roof",42.316146336,-71.0845014029999,"['BPS', 'Boston-Latin-Academy', 'Outside']",2024/08/20 04:31:43+00,1,BPS,,Outside,Boston Latin Academy,46
-7913800.32787478,5210827.64729927,N_579275502070532581,Roxbury,Q2CK-SQTZ-N3W3,ROX-Madison Park-HS-AP2,"75 Malcolm X Blvd, Boston, MA 02120",42.3319053330001,-71.0908779,['recently-added'],2024/08/20 04:31:43+00,1,,,,,47
-7914741.08866884,5208915.58598681,N_579275502070532581,Roxbury,Q2CK-GUWZ-2YNU,ROX-BRAGDON-AP1,"85 Bragdon St., Roxbury MA",42.319206336,-71.099328898,"['EOC', 'Outside']",2024/08/20 04:31:43+00,1,,,Outside,EOC,48
-7918007.20174947,5203858.81735526,N_601230550253961252,Roslindale,Q2CK-6V2L-TCDF,ROS-BPL-AP1,"4246 Washington St., Roslindale MA",42.285609343,-71.128668891,"['BPL', 'Outside', 'Roslindale-branch']",2024/08/20 04:31:43+00,1,BPL,,Outside,Roslindale branch,49
-7917899.50014213,5203994.24347405,N_601230550253961252,Roslindale,Q2CK-6PU6-G499,ROS-COMMUNITY-AP2,"6 Cummings Highway, Roslindale, MA",42.286509343,-71.127701391,"['BCYF/BPL', 'Outside', 'Roslindale-Comm-Center']",2024/08/20 04:31:43+00,1,BCYF,BPL,Outside,Roslindale Comm Center,50
-7917899.50014213,5203994.24347405,N_601230550253961252,Roslindale,Q2CK-5TD4-6S66,ROS-COMMUNITY-AP1,"6 Cummings Highway, Roslindale, MA",42.286509343,-71.127701391,"['BCYF/BPL', 'Outside', 'Roslindale-Comm-Center']",2024/08/20 04:31:43+00,1,BCYF,BPL,Outside,Roslindale Comm Center,51
-7918007.20174947,5203858.81735526,N_601230550253961252,Roslindale,Q2CK-7FHC-97HP,ROS-BPL-AP2,"4246 Washington St., Roslindale MA",42.285609343,-71.128668891,"['BPL', 'Outside', 'Roslindale-branch']",2024/08/20 04:31:43+00,1,BPL,,Outside,Roslindale branch,52
-7917899.50014213,5203994.24347405,N_601230550253961252,Roslindale,Q2CK-NLJC-KT9P,ROS-COMMUNITY-AP4,"6 cummins highway, Roslindale, ma",42.286509343,-71.127701391,"['BCYF', 'Flaherty-Pool', 'Outside']",2024/08/20 04:31:43+00,1,BCYF,,Outside,Flaherty Pool,53
-7910170.53424036,5215103.06324401,N_601230550253961310,Downtown Boston - City Hall - Quincy Market,Q3AE-4FLA-SJCJ,DT-Beer garden 2- higher level of beer garden,One City Hall Sq  Boston MA 02201,42.360291327,-71.058270909,[],2024/08/20 04:31:44+00,1,,,,,54
-7910170.53424036,5215103.06324401,N_601230550253961310,Downtown Boston - City Hall - Quincy Market,Q3AE-HJRQ-D68Q,DT-CITYHALL-GUARDSHACK,One City Hall Sq Boston MA 02201,42.360291327,-71.058270909,[],2024/08/20 04:31:44+00,1,,,,,55
-7909698.31247149,5215107.34732686,N_601230550253961310,Downtown Boston - City Hall - Quincy Market,Q3AE-ARNB-HFAK,DT-QUINCYMARKET-AP2,"Faneuil Hall Marketplace
Boston MA 02201",42.3603197641085,-71.0540288686752,[],2024/08/20 04:31:44+00,1,,,,,56
-7909701.89545719,5215082.26642696,N_601230550253961310,Downtown Boston - City Hall - Quincy Market,Q3AE-PMFQ-JUX3,DT-QUINCYMARKET-AP4,"Faneuil Hall Marketplace
Boston MA 02201",42.3601532806207,-71.0540610551834,[],2024/08/20 04:31:44+00,1,,,,,57
-7910170.53424036,5215103.06324401,N_601230550253961310,Downtown Boston - City Hall - Quincy Market,Q3AE-3S8D-CZPE,DT-CITYHALL-4th-Floor-Patio-Daycare,One City Hall Sq  Boston MA 02201,42.360291327,-71.058270909,[],2024/08/20 04:31:44+00,1,,,,,58
-7909943.10863199,5215065.09924111,N_601230550253961310,Downtown Boston - City Hall - Quincy Market,Q3AK-C98F-JUR2,Faneuil-Hall-Marketplace-window1,"1 Faneuil Hall Sq, Boston, MA 02109",42.360039327,-71.05622791,[],2024/08/20 04:31:44+00,1,,,,,59
-7910170.53424036,5215103.06324401,N_601230550253961310,Downtown Boston - City Hall - Quincy Market,Q3AE-TBT5-D72C,DT-Beer garden 1- lower part of beer garden,One City Hall Sq  Boston MA 02201,42.360291327,-71.058270909,[],2024/08/20 04:31:44+00,1,,,,,60
-7914619.86174336,5210876.43634881,N_601230550253961587,BCYF Tremont,Q2FD-4SE4-JW2S,BCYF-3rd FL GED,"1483 Tremont St, Boston, MA",42.332229333,-71.098239898,"['BCYF', 'Inside', 'employee']",2024/08/20 04:31:45+00,1,BCYF,,Inside,employee,61
-7909943.10863199,5215065.09924111,N_601230550253961310,Downtown Boston - City Hall - Quincy Market,Q3AK-D5DU-9HST,Faneuil-Hall-Marketplace-window,"1 Faneuil Hall Sq, Boston, MA 02109",42.360039327,-71.05622791,['recently-added'],2024/08/20 04:31:44+00,1,,,,,62
-7910170.53424036,5215103.06324401,N_601230550253961310,Downtown Boston - City Hall - Quincy Market,Q3AE-ZUF3-Y73P,DT-CITYHALL-4th-Floor-Patio-AP1,One City Hall Sq  Boston MA 02201,42.360291327,-71.058270909,[],2024/08/20 04:31:44+00,1,,,,,63
,,L_601230550253963851,Mobile WiFi Kit 3,Q2ZY-V6UL-X52X,MG41-3,,,,[],2024/08/20 04:31:35+00,1,,,,,64
-7917274.8311535,5199570.87332071,N_568579452955538316,Hyde Park,Q2CK-53BW-3TB9,HP-BPL-AP2,"35 Harvard Ave., Hyde Park, MA - Roof South",42.257106348,-71.1220898939999,"['BPL', 'Hyde-Park-Branch', 'Outside']",2024/08/20 04:31:41+00,1,BPL,,Outside,Hyde Park Branch,65
-7917190.67372978,5199596.59250128,N_568579452955538316,Hyde Park,Q2AK-GPHE-YSR2,HP-CENTRAL-AP1,"26 Central Ave., Hyde Park, MA",42.2572773480001,-71.121333895,"['BPHC', 'Hyde-Park', 'Outside']",2024/08/20 04:31:41+00,1,BPHC,,Outside,Hyde Park,66
-7917028.87084991,5199271.72391499,N_568579452955538316,Hyde Park,Q2CK-4SHS-VJAG,HP-BFD48-AP2,"60 Fairmont Ave., Hyde Park, MA",42.255117349,-71.1198803949999,"['BFD', 'Engine-48', 'Outside']",2024/08/20 04:31:41+00,1,BFD,,Outside,Engine 48,67
-7912311.50337599,5210272.70528783,N_579275502070532581,Roxbury,Q2CK-5FW6-RS9C,ROX-VINE-AP5,"Dudley and Adams St., Roxbury, MA",42.3282199375272,-71.0775035619736,"['BCYF/BPL', 'Outside', 'Vine-St-Comm-Center', 'recently-added']",2024/08/20 04:31:43+00,1,BCYF,BPL,Outside,Vine St Comm Center,68
-7913611.28742313,5208018.69003845,N_579275502070532581,Roxbury,Q2CK-DSFT-7HTL,ROX-TROTTER-AP3,"Humbolt & Waumbeck St., Roxbury, MA",42.3132486987508,-71.0891797207296,"['BPS', 'Outside', 'Trotter-School']",2024/08/20 04:31:43+00,1,BPS,,Outside,Trotter School,69
-7909890.00220648,5215062.56000561,N_601230550253961310,Downtown Boston - City Hall - Quincy Market,Q3AE-F6RV-VVHP,DT-QUINCYMARKET-AP3,"Faneuil Hall Marketplace
Boston MA 02201",42.3600224718566,-71.0557508468628,[],2024/08/20 04:31:44+00,1,,,,,70
-7910170.53424036,5215103.06324401,N_601230550253961310,Downtown Boston - City Hall - Quincy Market,Q3AE-ZXW8-H9ZW,DT-CITYHALL-8th-Floor-Interior Ring,"One City Hall Sq
Boston MA 02201",42.360291327,-71.058270909,[],2024/08/20 04:31:44+00,1,,,,,71
-7910170.53424036,5215103.06324401,N_601230550253961310,Downtown Boston - City Hall - Quincy Market,Q3AE-3A2V-JNVG,DT-CITYHALL-AP1,"One City Hall Sq
Boston MA 02201",42.360291327,-71.058270909,[],2024/08/20 04:31:44+00,1,,,,,72
-7908003.97931871,5216719.38586558,N_601230550253961436,East Boston,Q2CK-ZYHQ-FVKG,EB-BPDA7-AP1,"69 Paris Street, East Boston",42.371019324,-71.0388084149999,"['BPD', 'District-A-7', 'E-Boston-Main-Street', 'Outside']",2024/08/20 04:31:44+00,1,BPD,,Outside,District A 7 E Boston Main Street,73
-7908003.97931871,5216719.38586558,N_601230550253961436,East Boston,Q2CK-D66G-X9MY,EB-BPDA7-AP4,"69 Paris St., East Boston, MA - Right back pointing towards Maverick St",42.371019324,-71.0388084149999,"['BPD', 'District-A-7', 'E-Boston-Main-Street', 'Outside']",2024/08/20 04:31:44+00,1,BPD,,Outside,District A 7 E Boston Main Street,74
-7907994.46150225,5216271.88624328,N_601230550253961436,East Boston,Q2CK-DR2X-L8TF,EB-ENGINE9-AP2,"239 Sumner St., East Boston, MA - Left front on Station",42.368049324,-71.0387229149999,"['BFD', 'E-Boston-Main-Street', 'Engine-9', 'Outside']",2024/08/20 04:31:44+00,1,BFD,,Outside,E Boston Main Street Engine 9,75
-7907933.84803951,5216907.88446422,N_601230550253961436,East Boston,Q2CK-NU9A-QWKC,EB-10GOVE-AP2,"10 Gove St, Boston, MA 02128, USA",42.3722703240001,-71.0381784149999,"['E-Boston-Main-Street', 'June2016', 'Outside', 'Private-residence']",2024/08/20 04:31:44+00,1,,,Outside,E Boston Main Street June2016 Private residence,76
-7908003.97931871,5216719.38586558,N_601230550253961436,East Boston,Q2CK-N6MC-XFPQ,EB-BPDA7-AP3,"69 Paris Street, East Boston",42.371019324,-71.0388084149999,['recently-added'],2024/08/20 04:31:44+00,1,,,,,77
-7907994.46150225,5216271.88624328,N_601230550253961436,East Boston,Q2EK-N2DB-5PSX,EB-ENGINE9-AP1,"239 Sumner St, Boston, MA 02128",42.368049324,-71.0387229149999,"['BFD', 'E-Boston-Main-Street', 'Engine-9', 'Outside']",2024/08/20 04:31:44+00,1,BFD,,Outside,E Boston Main Street Engine 9,78
-7914619.86174336,5210876.43634881,N_601230550253961587,BCYF Tremont,Q2QD-R397-ZFBT,BCYF-1st floor AP1 ,"1483 Tremont St, Boston, MA",42.332229333,-71.098239898,"['BCYF', 'Inside', 'UXI', 'employee']",2024/08/20 04:31:45+00,1,BCYF,,Inside,UXI employee,79
-7914608.84111377,5210873.72583946,N_601230550253961587,BCYF Tremont,Q3AK-EDQ7-X7P4,AgeStrong-1stFL-Tremont-AP1,"1481 Tremont St, Boston, MA",42.332211333,-71.0981408979999,['employee'],2024/08/20 04:31:45+00,1,,,,employee,80
-7914619.86174336,5210876.43634881,N_601230550253961587,BCYF Tremont,Q2CK-UTKT-YZ7P,BCYF-3rd FL Easter Island,"1483 Tremont St, Boston, MA",42.332229333,-71.098239898,"['BCYF', 'Inside', 'employee']",2024/08/20 04:31:45+00,1,BCYF,,Inside,employee,81
-7914619.86174336,5210876.43634881,N_601230550253961587,BCYF Tremont,Q3AK-G3NG-D7KN,BCYF_Tremont_YEE_2nd floor-Multi-Purpose-RM-AP5,"1483 Tremont St, Boston, MA",42.332229333,-71.098239898,"['BCYF', 'DYEE', 'Inside', 'employee', 'recently-added']",2024/08/20 04:31:45+00,1,BCYF,DYEE,Inside,employee,82
-7910723.06864423,5208782.79928088,N_568579452955534204,Dorchester,Q2CK-G9M2-VTK4,DOT-BFD21-AP2,"641 Columbia Rd., Dorchester, MA",42.3183243350001,-71.06323441,"['BFD', 'Engine-21', 'Outside']",2024/08/20 04:31:39+00,1,BFD,,Outside,Engine 21,83
-7912662.19806883,5205505.7296573,N_568579452955534204,Dorchester,Q2CK-HPSU-2K3Q,DOT-GREENWOOD-AP2,"189 Glenway Street, Dorchester, MA",42.2965533390001,-71.080653906,"['BPS', 'Greenwood-School', 'Outside']",2024/08/20 04:31:39+00,1,BPS,,Outside,Greenwood School,84
-7910280.74098152,5205718.38632589,N_568579452955534204,Dorchester,Q2CK-NE73-ZSQB,DOT-BPDC11-AP1,"40 Gibson st, Dorchester, ma",42.297966338,-71.0592609129999,['recently-added'],2024/08/20 04:31:39+00,1,,,,,85
-7914566.26151987,5208794.99403748,N_579275502070532581,Roxbury,Q2CK-XD4N-QHUN,BFD-E42-AP1,"1870 Columbus Ave., Roxbury, MA",42.3184053360001,-71.097758399,"['BFD', 'Engine-42', 'Outside', 'recently-added']",2024/08/20 04:31:43+00,1,BFD,,Outside,Engine 42,86
-7914619.86174336,5210876.43634881,N_601230550253961587,BCYF Tremont,Q2FD-5N3B-TTKT,BCYF-4th FL Dep. Comm,"1483 Tremont St, Boston, MA",42.332229333,-71.098239898,"['BCYF', 'employee', 'Inside']",2024/08/20 04:31:45+00,1,BCYF,,Inside,employee,87
-7914619.86174336,5210876.43634881,N_601230550253961587,BCYF Tremont,Q2FD-55JF-J4WS,BCYF-4th FL Library,"1483 Tremont St, Boston, MA",42.332229333,-71.098239898,"['BCYF', 'Inside', 'employee']",2024/08/20 04:31:45+00,1,BCYF,,Inside,employee,88
-7910622.72278231,5206787.80382052,N_601230550253961607,Maintenance,Q2CK-FBVU-CKYV,DOT-LINDEN-AP1,"Linden and Adams St., Dorchester, MA",42.3050716108001,-71.0623329877853,"['Linden', 'Outside', 'recently-added']",2024/08/20 04:31:46+00,1,,,Outside,Linden,89
-7910789.19219912,5214370.92732604,N_601230550253961607,Maintenance,Q2CK-MP93-YDN3,PARKS-COMMONEAST-AP1,"139 Tremont St, Boston, MA 02111",42.3554313280001,-71.0638284079999,"['Boston-Common', 'recently-added']",2024/08/20 04:31:46+00,1,,,,Boston Common,90
-7912997.3250619,5210562.02243848,N_601230550253961809,Bolling,Q2FD-DQJY-R4K6,BOL-FOYER-AP2,"2300 Washington St., Roxbury 02119",42.330141333,-71.0836644029999,"['Bolling', 'CoB-Employee', 'Inside']",2024/08/20 04:31:46+00,1,,,Inside,Bolling CoB Employee,91
-7912997.3250619,5210562.02243848,N_601230550253961809,Bolling,Q2FD-VT33-84WZ,BOL-ROOFDECK-AP1,"2300 Washington St., Roxbury 02119",42.330141333,-71.0836644029999,"['Bolling', 'Inside']",2024/08/20 04:31:46+00,1,,,Inside,Bolling,92
-7913720.67889044,5209400.67907213,N_601230550253962329,BCYF Indoor,Q3AK-E7TV-XMVL,BCYF-Shelburne-MR76-AP2,"2730 Washington St Boston, MA 02119",42.322428335,-71.090162401,[],2024/08/20 04:31:47+00,1,,,,,93
-7913720.67889044,5209400.67907213,N_601230550253962329,BCYF Indoor,Q3AK-WHQ6-PEDA,BCYF-Shelburne-MR76-AP3,"2730 Washington StBoston, MA 02119",42.322428335,-71.090162401,[],2024/08/20 04:31:47+00,1,,,,,94
-7909161.14553683,5205152.21518601,N_601230550253962329,BCYF Indoor,Q2KD-EVN5-DSFP,BCYF-Leahy-Holloran-AP1,"One Worrell St., Dorchester, MA - inside lobby reception desk",42.294204339,-71.049203416,"['BCYF', 'BCYF-Grant', 'Dorchester', 'Inside', 'Murphy']",2024/08/20 04:31:47+00,1,BCYF,,Inside,Dorchester Murphy,95
-7910910.92006231,5213247.0732002,N_601230550253962329,BCYF Indoor,Q3AC-X96E-VGA8,BCYF-Quincy_CC_AP1,"BPS-Quincy_Elem_232, 885 Washington Street, Boston, MA 02111",42.3479703290001,-71.064921908,"['BCYF', 'BCYF-Grant', 'Inside']",2024/08/20 04:31:47+00,1,BCYF,,Inside,,96
-7909161.14553683,5205152.21518601,N_601230550253962329,BCYF Indoor,Q2JD-XRN5-6G22,BCYF-Murphy-AP2,"One Worrell Street, Dorchester, MA - Admin office B 123",42.294204339,-71.049203416,"['BCYF', 'BCYF-Grant', 'Dorchester', 'Inside', 'Murphy']",2024/08/20 04:31:47+00,1,BCYF,,Inside,Dorchester Murphy,97
-7916494.37020355,5207353.42966228,N_601230550253962329,BCYF Indoor,Q2JD-XRZM-K84X,BCYF-Curtis-Hall-AP3,"20 South Street, Jamaica Plain, MA - Room 108 supervisor",42.3088293380001,-71.115078894,"['BCYF', 'BCYF-Grant', 'Curtis', 'Inside', 'Jamaica-Plain']",2024/08/20 04:31:47+00,1,BCYF,,Inside,Curtis Jamaica Plain,98
-7909161.14553683,5205152.21518601,N_601230550253962329,BCYF Indoor,Q2JD-WG4P-EVHX,BCYF-Murphy-AP1,"One Worrell St., Dorchester, MA -  inside lobby reception desk",42.294204339,-71.049203416,"['BCYF', 'BCYF-Grant', 'Dorchester', 'Inside', 'Murphy']",2024/08/20 04:31:47+00,1,BCYF,,Inside,Dorchester Murphy,99
-7916494.37020355,5207353.42966228,N_601230550253962329,BCYF Indoor,Q2JD-VG9W-FPTX,BCYF-Curtis-Hall-AP1,"20 South Street, Jamaica Plain - room 204 Senior Center
Asset tag #701689",42.3088293380001,-71.115078894,"['BCYF', 'BCYF-Grant', 'Curtis', 'Inside', 'Jamaica-Plain']",2024/08/20 04:31:47+00,1,BCYF,,Inside,Curtis Jamaica Plain,100
-7916494.37020355,5207353.42966228,N_601230550253962329,BCYF Indoor,Q2JD-XS34-CU2K,BCYF-Curtis-Hall-AP2,"20 South Street, Jamaica Plain - Room 217 teen room",42.3088293380001,-71.115078894,"['BCYF', 'BCYF-Grant', 'Curtis', 'Inside', 'Jamaica-Plain']",2024/08/20 04:31:47+00,1,BCYF,,Inside,Curtis Jamaica Plain,101
,,L_601230550253963852,Mobile WiFi Kit 4,Q3AK-VU6H-QY3R,MR76-4,,,,[],2024/08/20 04:31:36+00,1,,,,,102
,,L_601230550253963852,Mobile WiFi Kit 4,Q2ZY-UMFL-3SV4,MG41-4,,,,[],2024/08/20 04:31:36+00,1,,,,,103
,,L_601230550253963853,Mobile WiFi Kit 5,Q3AK-VPCA-XAXA,MR76-5,,,,[],2024/08/20 04:31:37+00,1,,,,,104
-7904348.42368246,5218988.95300298,N_601230550253966604,East Boston Senior Center,Q3AB-3PP3-JU4W,EBSC-AP-1,"18 Barnes Avenue, East Boston, MA 02128",42.38608,-71.00597,"['Inside', 'employee']",2024/08/20 04:31:50+00,1,,,Inside,employee,105
-7910723.06864423,5208782.79928088,N_568579452955534204,Dorchester,Q2CK-H48M-P2E9,DOT-BFD21-AP3,"641 Columbia Rd., Dorchester, MA",42.3183243350001,-71.06323441,"['BFD', 'Engine-21', 'Outside']",2024/08/20 04:31:39+00,1,BFD,,Outside,Engine 21,106
-7911905.78235153,5206868.44108136,N_568579452955534204,Dorchester,Q2CK-ERFW-VHQX,DOT-HOLLAND-AP2,"85 Olney St., Dorchester, MA",42.305607337,-71.073858908,"['BCYF', 'Holland-Comm-Center', 'Outside']",2024/08/20 04:31:39+00,1,BCYF,,Outside,Holland Comm Center,107
-7917541.83095217,5199389.48754636,N_568579452955538316,Hyde Park,Q2CK-BUXF-V896,HP-BPDE18-AP3,"1276 River St., Hyde Park, MA - Hyde Park Ave & River St",42.2559003490001,-71.124488394,"['BPD', 'District', 'E-18', 'Outside']",2024/08/20 04:31:41+00,1,BPD,,Outside,District E 18,108
-7917274.8311535,5199570.87332071,N_568579452955538316,Hyde Park,Q2CK-MJQD-GHYW,HP-BPL-AP1,"35 Harvard Ave., Hyde Park, MA - Roof North",42.257106348,-71.1220898939999,"['BPL', 'Hyde-Park-Branch', 'Outside']",2024/08/20 04:31:41+00,1,BPL,,Outside,Hyde Park Branch,109
-7913720.67889044,5209400.67907213,N_601230550253962329,BCYF Indoor,Q2JD-VSFG-ZKNW,BCYF-Shelbourne-AP2,"2730 Washington St, Roxbury, MA - Game room (Teen room)",42.322428335,-71.090162401,"['BCYF', 'BCYF-Grant', 'Inside', 'Roxbury', 'Shelburne']",2024/08/20 04:31:47+00,1,BCYF,,Inside,Roxbury Shelburne,110
-7910482.11727245,5218089.13727518,N_601230550253962329,BCYF Indoor,Q2JD-VTCK-Y2SH,BCYF-Charlestown-AP2,"240 Medford St., Charlestown, MA - Admin office",42.3801093230001,-71.0610699069999,"['BCYF', 'BCYF-Grant', 'Charlestown', 'Inside']",2024/08/20 04:31:47+00,1,BCYF,,Inside,Charlestown,111
-7910482.11727245,5218089.13727518,N_601230550253962329,BCYF Indoor,Q2JD-UTKP-YWHB,BCYF-Charlestown-AP1,"240 Medford St., Charlestown, MA - meeting room",42.3801093230001,-71.0610699069999,"['BCYF', 'BCYF-Grant', 'Charlestown', 'Inside']",2024/08/20 04:31:47+00,1,BCYF,,Inside,Charlestown,112
-7917899.50014213,5203994.24347405,N_601230550253962329,BCYF Indoor,Q2JD-XNJC-E9DV,BCYF-Roslindale-AP1,"6 Cummins Highway, Roslindale, MA - Meeting room",42.286509343,-71.127701391,"['BCYF', 'BCYF-Grant', 'Inside', 'Roslindale']",2024/08/20 04:31:47+00,1,BCYF,,Inside,Roslindale,113
-7917899.50014213,5203994.24347405,N_601230550253962329,BCYF Indoor,Q2JD-URL9-7FSE,BCYF-Roslindale-AP2,"6 Cummins Highway, Roslindale, MA - Room 108 after school room",42.286509343,-71.127701391,"['BCYF', 'BCYF-Grant', 'Inside', 'Roslindale']",2024/08/20 04:31:47+00,1,BCYF,,Inside,Roslindale,114
-7917899.50014213,5203994.24347405,N_601230550253962329,BCYF Indoor,Q2JD-XLEC-WCDN,BCYF-Roslindale-AP3,"6 Cummins Highway, Roslindale, MA - room 205 teen room",42.286509343,-71.127701391,"['BCYF', 'BCYF-Grant', 'Inside', 'Roslindale']",2024/08/20 04:31:47+00,1,BCYF,,Inside,Roslindale,115
-7912222.87558709,5210059.25306829,N_601230550253962329,BCYF Indoor,Q2LD-6MR4-Y7UM,BCYF-Vine Street-Room 107,"339 Dudley Street. Boston, MA",42.326802334,-71.076707405,[],2024/08/20 04:31:47+00,1,,,,,116
-7912222.87558709,5210059.25306829,N_601230550253962329,BCYF Indoor,Q2LD-HLM8-574W,BCYF-Vine Street-Senior Lounge 222 AP1,"339 Dudley Street. Boston, MA",42.326802334,-71.076707405,[],2024/08/20 04:31:47+00,1,,,,,117
-7912222.87558709,5210059.25306829,N_601230550253962329,BCYF Indoor,Q2LD-54N8-9YC9,BCYF-Vine Street-Senior Room 222 AP2,"339 Dudley Street. Boston, MA",42.326802334,-71.076707405,[],2024/08/20 04:31:47+00,1,,,,,118
-7912222.87558709,5210059.25306829,N_601230550253962329,BCYF Indoor,Q2LD-DSEF-JAHC,BCYF-Vine Street- Classroom B,"339 Dudley Street. Boston, MA",42.326802334,-71.076707405,[],2024/08/20 04:31:47+00,1,,,,,119
-7912222.87558709,5210059.25306829,N_601230550253962329,BCYF Indoor,Q2LD-DUHQ-HF7B,BCYF-Vine Street-Computer room 205,"339 Dudley Street. Boston, MA",42.326802334,-71.076707405,[],2024/08/20 04:31:47+00,1,,,,,120
-7912222.87558709,5210059.25306829,N_601230550253962329,BCYF Indoor,Q2LD-D7L7-Y73T,BCYF-Vine Street-Fitness room 219,"339 Dudley Street. Boston, MA",42.326802334,-71.076707405,[],2024/08/20 04:31:47+00,1,,,,,121
,,L_601230550253963853,Mobile WiFi Kit 5,Q2ZY-CKEJ-LDAC,MG41-5,,,,[],2024/08/20 04:31:37+00,1,,,,,122
-7911607.22358854,5205989.29364355,N_568579452955534204,Dorchester,Q2CK-CJQV-TSTH,DOT-MARSHALL-AP2,"35 Westville St., Dorchester, MA",42.299766338,-71.071176909,"['BPS', 'Marshall-School', 'Outside', 'UP-Academy']",2024/08/20 04:31:39+00,1,BPS,,Outside,Marshall School UP Academy,123
-7912222.87558709,5210059.25306829,N_601230550253962329,BCYF Indoor,Q2LD-TEW9-ABKD,BCYF-Vine Street-Art Room 122,"339 Dudley Street. Boston, MA",42.326802334,-71.076707405,[],2024/08/20 04:31:47+00,1,,,,,124
-7912222.87558709,5210059.25306829,N_601230550253962329,BCYF Indoor,Q2LD-VVDJ-5Z5M,BCYF-Vine Street-Room 123,"339 Dudley Street. Boston, MA",42.326802334,-71.076707405,[],2024/08/20 04:31:47+00,1,,,,,125
-7912222.87558709,5210059.25306829,N_601230550253962329,BCYF Indoor,Q2LD-YT4H-L4ES,BCYF-Vine Street-room 106 Teen,"339 Dudley Street. Boston, MA",42.326802334,-71.076707405,[],2024/08/20 04:31:47+00,1,,,,,126
-7912222.87558709,5210059.25306829,N_601230550253962329,BCYF Indoor,Q2LD-GHSY-3U4C,BCYF-Vine Street-Dance Studio 209 left,"339 Dudley Street. Boston, MA",42.326802334,-71.076707405,[],2024/08/20 04:31:47+00,1,,,,,127
-7916421.2332981,5207614.90020435,N_601230550253962845,Jamaica Plain,Q2CK-NER6-DHDA,JP-BFDE28-AP1,"746 Centre Street, Jamaica Plain",42.3105663380001,-71.114421894,['recently-added'],2024/08/20 04:31:48+00,1,,,,,128
-7916494.37020355,5207353.42966228,N_601230550253962845,Jamaica Plain,Q2CK-SPCX-L9G6,JP-Curtis Hall-BCYF-AP1,"20 South St, Jamaica Plain, MA 02130",42.3088293380001,-71.115078894,"['BCYF', 'BCYF-Grant', 'Curtis-Hall', 'Outside']",2024/08/20 04:31:48+00,1,BCYF,,Outside,Curtis Hall,129
-7916551.66837083,5207223.66843261,N_601230550253962845,Jamaica Plain,Q2CK-L8D3-H68P,JP-Curtis Hall-BCYF-AP3,"55 South St, Jamaica Plain",42.3079672909511,-71.1155936121941,"['Centre-South-Main-Street', 'Lightpole', 'Outside']",2024/08/20 04:31:48+00,1,,,Outside,Centre South Main Street Lightpole,130
-7916494.37020355,5207353.42966228,N_601230550253962845,Jamaica Plain,Q2CK-LHCB-ZA9D,JP-Curtis Hall-BCYF-AP2,"20 South St, Jamaica Plain, MA 02130",42.3088293380001,-71.115078894,"['BCYF', 'Centre-South-Main-Street', 'Curtis-Hall', 'Outside']",2024/08/20 04:31:48+00,1,BCYF,,Outside,Centre South Main Street Curtis Hall,131
-7916421.2332981,5207614.90020435,N_601230550253962845,Jamaica Plain,Q2CK-NLSB-E9TE,JP-BFDE28-AP3,"746 Centre Street, Jamaica Plain",42.3105663380001,-71.114421894,['recently-added'],2024/08/20 04:31:48+00,1,,,,,132
-7916421.2332981,5207614.90020435,N_601230550253962845,Jamaica Plain,Q2CK-NLUC-P9T6,JP-BFDE28-AP2,"746 Centre Street, Jamaica Plain",42.3105663380001,-71.114421894,['recently-added'],2024/08/20 04:31:48+00,1,,,,,133
-7911026.63689562,5208425.09782009,N_601230550253965255,Strand Theatre - External,Q2QD-428C-NVTB,Strand_Centered above external set of doors,"543 Columbia Road Boston, MA 02125",42.315948335,-71.0659614099999,['Outside'],2024/08/20 04:31:48+00,1,,,Outside,,134
-7911026.63689562,5208425.09782009,N_601230550253965255,Strand Theatre - External,Q2QD-42EC-LQ5Z,Strand_Marquee support left,"543 Columbia Road Boston, MA 02125",42.315948335,-71.0659614099999,['Outside'],2024/08/20 04:31:48+00,1,,,Outside,,135
-7911026.63689562,5208425.09782009,N_601230550253965256,Strand Theatre - Internal,Q2KD-JUWB-SVBB,Strand_Camera room theatre wall ,"543 Columbia Rd, Boston, MA 02125",42.315948335,-71.0659614099999,['Inside'],2024/08/20 04:31:49+00,1,,,Inside,,136
-7911026.63689562,5208425.09782009,N_601230550253965256,Strand Theatre - Internal,Q2KD-6HAC-QJAE,Strand_Orchestra lobby_AP2,"543 Columbia Rd, Boston, MA 02125",42.315948335,-71.0659614099999,['Inside'],2024/08/20 04:31:49+00,1,,,Inside,,137
-7911026.63689562,5208425.09782009,N_601230550253965256,Strand Theatre - Internal,Q2KD-V49N-RSA2,Strand_Orchestra lobby_AP1,"543 Columbia Rd, Boston, MA 02125",42.315948335,-71.0659614099999,['Inside'],2024/08/20 04:31:49+00,1,,,Inside,,138
-7911026.63689562,5208425.09782009,N_601230550253965256,Strand Theatre - Internal,Q2KD-4CVV-PPU5,Strand_Orchestra lobby_AP3,"543 Columbia Rd, Boston, MA 02125",42.315948335,-71.0659614099999,['Inside'],2024/08/20 04:31:49+00,1,,,Inside,,139
-7911026.63689562,5208425.09782009,N_601230550253965256,Strand Theatre - Internal,Q2KD-T5KV-QQRN,Strand_Stage Right ,"543 Columbia Rd, Boston, MA 02125",42.315948335,-71.0659614099999,['Inside'],2024/08/20 04:31:49+00,1,,,Inside,,140
-7911026.63689562,5208425.09782009,N_601230550253965256,Strand Theatre - Internal,Q2KD-4MAV-QUR8,Strand_Camera room office right,"543 Columbia Rd, Boston, MA 02125",42.315948335,-71.0659614099999,['Inside'],2024/08/20 04:31:49+00,1,,,Inside,,141
-7911026.63689562,5208425.09782009,N_601230550253965256,Strand Theatre - Internal,Q2KD-6H83-WZ3E,Strand_Box Office ceiling,"543 Columbia Rd, Boston, MA 02125",42.315948335,-71.0659614099999,['Inside'],2024/08/20 04:31:49+00,1,,,Inside,,142
-7912918.67784166,5210704.32054461,N_601230550253966449,OPAT,Q3AC-GXG6-6WZR,OPAT-AP1,2201 Washington St Roxbury MA 02118,42.331086333,-71.082957903,[],2024/08/20 04:31:49+00,1,,,,,143
-7904348.42368246,5218988.95300298,N_601230550253966604,East Boston Senior Center,Q3AB-3QKN-ZC2L,EBSC-AP-2,"18 Barnes Avenue, East Boston, MA 02128",42.38608,-71.00597,"['Inside', 'employee']",2024/08/20 04:31:50+00,1,,,Inside,employee,144
-7904348.42368246,5218988.95300298,N_601230550253966604,East Boston Senior Center,Q3AB-384Z-M6EA,EBSC-AP-4,"18 Barnes Avenue, East Boston, MA 02128",42.38608,-71.00597,"['Inside', 'employee']",2024/08/20 04:31:50+00,1,,,Inside,employee,145
,,L_601230550253964019,City Hall Truck,Q3AU-KME9-S2T6,CoB-Mobile-Truck_MR-78,,,,[],2024/08/20 04:31:37+00,1,,,,,146
-7907045.68603882,5210858.81775077,N_568579452955537848,South Boston,Q2CK-L6R4-HJGB,SB-PERRY-AP1,"745 E 7th St, South Boston, MA 02127",42.3321123310001,-71.03019992,['recently-added'],2024/08/20 04:31:40+00,1,,,,,147
-7908680.74616299,5210971.30436346,N_568579452955537848,South Boston,Q2CK-LEG8-FAFN,SB-HIGHSCHOOL-AP2,"95 G St., South Boston, MA",42.3328593310001,-71.0448879149999,['recently-added'],2024/08/20 04:31:40+00,1,,,,,148
-7908689.70199669,5210969.59600664,N_568579452955537848,South Boston,Q2CK-LQCX-HR7J,SB-HIGHSCHOOL-AP1,95 G Street,42.3328479862272,-71.0449683666229,['recently-added'],2024/08/20 04:31:40+00,1,,,,,149
-7919879.70579091,5213413.81305402,N_568579452955538703,Alston Brighton,Q2CK-SA2P-MX2R,AB-BRIGHTON-HIGH-AP3,"25 Warren St, Brighton, MA 02135",42.349077331,-71.1454898809999,"['BCYF-Grant', 'BPS', 'Brighton-High-School', 'Outside']",2024/08/20 04:31:41+00,1,BPS,,Outside,Brighton High School,150
-7904348.42368246,5218988.95300298,N_601230550253966604,East Boston Senior Center,Q3AB-4Q4V-8E7P,EBSC-AP-5,"18 Barnes Avenue, East Boston, MA 02128",42.38608,-71.00597,"['Inside', 'employee']",2024/08/20 04:31:50+00,1,,,Inside,employee,151
-7904348.42368246,5218988.95300298,N_601230550253966604,East Boston Senior Center,Q3AB-SYXF-PX75,EBSC-AP-3,"18 Barnes Avenue, East Boston, MA 02128",42.38608,-71.00597,"['Inside', 'employee']",2024/08/20 04:31:50+00,1,,,Inside,employee,152
-7910170.53424036,5215103.06324401,N_601230550253966673,Downtown Boston - City Hall Plaza and Pavilion,Q3AE-JBPL-DSNV,AP-MR86-CS-23,"1 City Hall Plaza, Pavilion
Boston, MA  02201",42.360291327,-71.058270909,['City-Hall'],2024/08/20 04:31:51+00,1,,,,City Hall,153
-7910170.53424036,5215103.06324401,N_601230550253966673,Downtown Boston - City Hall Plaza and Pavilion,Q3AE-ZDPZ-2LNE,,"1 City Hall Square, Boston, MA 02201",42.360291327,-71.058270909,['City-Hall'],2024/08/20 04:31:51+00,1,,,,City Hall,154
-7910170.53424036,5215103.06324401,N_601230550253966673,Downtown Boston - City Hall Plaza and Pavilion,Q3AE-QYJ5-RXEJ,AP-MR86-CS-10,"1 City Hall Square, Boston, MA 02201",42.360291327,-71.058270909,['City-Hall'],2024/08/20 04:31:51+00,1,,,,City Hall,155
-7910170.53424036,5215103.06324401,N_601230550253966673,Downtown Boston - City Hall Plaza and Pavilion,Q3AE-2N4M-BWUD,,,42.360291327,-71.058270909,['City-Hall'],2024/08/20 04:31:51+00,1,,,,City Hall,156
-7910170.53424036,5215103.06324401,N_601230550253966673,Downtown Boston - City Hall Plaza and Pavilion,Q3AE-TF7U-TX4P,AP-MR86-IWF-ROOM,"One City Hall Sq, Pavilion Bld, IWF Room,
Boston, MA 02201",42.360291327,-71.058270909,['City-Hall'],2024/08/20 04:31:51+00,1,,,,City Hall,157
-7910170.53424036,5215103.06324401,N_601230550253966673,Downtown Boston - City Hall Plaza and Pavilion,Q3AE-95XZ-766Y,,,42.360291327,-71.058270909,['City-Hall'],2024/08/20 04:31:51+00,1,,,,City Hall,158
-7910170.53424036,5215103.06324401,N_601230550253966673,Downtown Boston - City Hall Plaza and Pavilion,Q3AE-M6TA-MFWJ,,,42.360291327,-71.058270909,['City-Hall'],2024/08/20 04:31:51+00,1,,,,City Hall,159
-7910170.53424036,5215103.06324401,N_601230550253966673,Downtown Boston - City Hall Plaza and Pavilion,Q3AE-R6BQ-D5KN,AP-MR86-CS-27,"1 City Hall Plaza, Pavilion
Boston, MA  02201",42.360291327,-71.058270909,['City-Hall'],2024/08/20 04:31:51+00,1,,,,City Hall,160
-7910170.53424036,5215103.06324401,N_601230550253966673,Downtown Boston - City Hall Plaza and Pavilion,Q3AE-M9YS-PAT8,,"1 City Hall Square, Boston, MA 02201",42.360291327,-71.058270909,['City-Hall'],2024/08/20 04:31:51+00,1,,,,City Hall,161
-7910170.53424036,5215103.06324401,N_601230550253966673,Downtown Boston - City Hall Plaza and Pavilion,Q3AE-E75T-LLQX,AP-MR86-CS-37,"1 City Hall Plaza, Pavilion
Boston, MA  02201",42.360291327,-71.058270909,['City-Hall'],2024/08/20 04:31:51+00,1,,,,City Hall,162
-7910170.53424036,5215103.06324401,N_601230550253966673,Downtown Boston - City Hall Plaza and Pavilion,Q3AE-BFV5-YGNC,City Hall Pavilion - Interior AP2,"One City Hall Sq, Pavilion Bldg
Boston, MA 02201",42.360291327,-71.058270909,['City-Hall'],2024/08/20 04:31:51+00,1,,,,City Hall,163
-7910170.53424036,5215103.06324401,N_601230550253966673,Downtown Boston - City Hall Plaza and Pavilion,Q3AE-8YNT-BM6Q,AP-MR86-CS-36?,"1 City Hall Plaza, Pavilion
Boston, MA  02201",42.360291327,-71.058270909,['City-Hall'],2024/08/20 04:31:51+00,1,,,,City Hall,164
-7910170.53424036,5215103.06324401,N_601230550253966673,Downtown Boston - City Hall Plaza and Pavilion,Q3AE-CANN-4NB2,,"1 City Hall Square, Boston, MA 02201",42.360291327,-71.058270909,['City-Hall'],2024/08/20 04:31:51+00,1,,,,City Hall,165
-7912102.65075967,5205535.52841454,N_568579452955534204,Dorchester,Q2CK-9ECJ-KEVB,DOT-HOLMES-AP2,"40 School St, Dorchester",42.296751339,-71.075627407,"['BPS', 'Holmes-Elementary-School', 'Outside']",2024/08/20 04:31:39+00,1,BPS,,Outside,Holmes Elementary School,166
-7917511.77468966,5199474.76542107,N_568579452955538316,Hyde Park,Q2CK-ZJFC-GBK2,HP-BPDE18-AP1,"1249 Hyde Park Ave., Hyde Park, MA",42.2564673480001,-71.124218394,"['BPD', 'District-E-18', 'Outside']",2024/08/20 04:31:41+00,1,BPD,,Outside,District E 18,167
-7910170.53424036,5215103.06324401,N_601230550253966673,Downtown Boston - City Hall Plaza and Pavilion,Q3AE-2F27-DVJ3,AP-MR86-CS-14,"1 City Hall Plaza, Pavilion
Boston, MA  02201",42.360291327,-71.058270909,['City-Hall'],2024/08/20 04:31:51+00,1,,,,City Hall,168
-7910170.53424036,5215103.06324401,N_601230550253966673,Downtown Boston - City Hall Plaza and Pavilion,Q3AE-EETG-KYUS,AP-MR86-CS-31,"1 City Hall Plaza, Pavilion
Boston, MA  02201",42.360291327,-71.058270909,['City-Hall'],2024/08/20 04:31:51+00,1,,,,City Hall,169
-7910170.53424036,5215103.06324401,N_601230550253966673,Downtown Boston - City Hall Plaza and Pavilion,Q3AE-A943-FE9F,City Hall Pavilion - Interior AP1,"One City Hall Sq, Pavilion Bldg
Boston, MA 02201",42.360291327,-71.058270909,['City-Hall'],2024/08/20 04:31:51+00,1,,,,City Hall,170
-7910170.53424036,5215103.06324401,N_601230550253966673,Downtown Boston - City Hall Plaza and Pavilion,Q3AE-WU87-WVGK,3rd Floor Lobby Entrance,"1 City Hall Plaza, 
Boston, MA  02201",42.360291327,-71.058270909,['City-Hall'],2024/08/20 04:31:51+00,1,,,,City Hall,171
-7910170.53424036,5215103.06324401,N_601230550253966673,Downtown Boston - City Hall Plaza and Pavilion,Q3AE-JXU4-QPQ3,,"1 City Hall Square, Boston, MA 02201",42.360291327,-71.058270909,['City-Hall'],2024/08/20 04:31:51+00,1,,,,City Hall,172
-7910170.53424036,5215103.06324401,N_601230550253966673,Downtown Boston - City Hall Plaza and Pavilion,Q3AE-A793-TEM9,,"1 City Hall Plaza, Pavilion
Boston, MA  02201",42.360291327,-71.058270909,['City-Hall'],2024/08/20 04:31:51+00,1,,,,City Hall,173
-7907596.71740692,5210407.52962179,N_601230550253966945,BCYF-Curley,Q3AC-96AP-QJ9X,BCYF-CURLEY-AP3,"1663 Columbia Rd, Boston, MA 02127",42.3291153320001,-71.0351499189999,"['BCYF', 'Inside', 'UXI', 'employee']",2024/08/20 04:31:51+00,1,BCYF,,Inside,UXI employee,174
-7907596.71740692,5210407.52962179,N_601230550253966945,BCYF-Curley,Q3AC-KTSG-GXHF,BCYF-CURLEY-AP2,"1663 Columbia Rd, Boston, MA 02127",42.3291153320001,-71.0351499189999,"['BCYF', 'Inside', 'UXI', 'employee']",2024/08/20 04:31:51+00,1,BCYF,,Inside,UXI employee,175
-7907596.71740692,5210407.52962179,N_601230550253966945,BCYF-Curley,Q3AC-7WRL-ZNXJ,BCYF-CURLEY-AP4,"1663 Columbia Rd, Boston, MA 02127",42.3291153320001,-71.0351499189999,"['BCYF', 'Inside', 'UXI', 'employee']",2024/08/20 04:31:51+00,1,BCYF,,Inside,UXI employee,176
-7907596.71740692,5210407.52962179,N_601230550253966945,BCYF-Curley,Q3AK-BEXN-TQN3,BCYF-CURLEY-AP12_OutDoor,"1663 Columbia Rd, Boston, MA 02127",42.3291153320001,-71.0351499189999,[],2024/08/20 04:31:51+00,1,,,,,177
-7907596.71740692,5210407.52962179,N_601230550253966945,BCYF-Curley,Q3AK-FBJE-35KU,BCYF-CURLEY-AP11_OutDoor,"1663 Columbia Rd, Boston, MA 02127",42.3291153320001,-71.0351499189999,[],2024/08/20 04:31:51+00,1,,,,,178
-7907596.71740692,5210407.52962179,N_601230550253966945,BCYF-Curley,Q3AC-QE7Y-PC5R,BCYF-CURLEY-AP5,"1663 Columbia Rd, Boston, MA 02127",42.3291153320001,-71.0351499189999,"['BCYF', 'Inside', 'UXI', 'employee']",2024/08/20 04:31:51+00,1,BCYF,,Inside,UXI employee,179
-7907596.71740692,5210407.52962179,N_601230550253966945,BCYF-Curley,Q3AC-DSVP-2T8U,BCYF-CURLEY-AP6,"1663 Columbia Rd, Boston, MA 02127",42.3291153320001,-71.0351499189999,"['BCYF', 'Inside', 'UXI', 'employee']",2024/08/20 04:31:51+00,1,BCYF,,Inside,UXI employee,180
-7907596.71740692,5210407.52962179,N_601230550253966945,BCYF-Curley,Q3AK-BF9F-PSRG,BCYF-CURLEY-AP9_OutDoor,"1663 Columbia Rd, Boston, MA 02127",42.3291153320001,-71.0351499189999,[],2024/08/20 04:31:51+00,1,,,,,181
-7907596.71740692,5210407.52962179,N_601230550253966945,BCYF-Curley,Q3AK-FCMY-RRA3,BCYF-CURLEY-AP10_OutDoor,"1663 Columbia Rd, Boston, MA 02127",42.3291153320001,-71.0351499189999,[],2024/08/20 04:31:51+00,1,,,,,182
-7914281.44179975,5208060.59826855,N_601230550253966985,NOC-TEST,Q3AK-FN7B-Y89N,Egleston Square-MR76-AP1,"42.313527087006534, -71.09519981992194",42.3135270870065,-71.0951998199219,['recently-added'],2024/08/20 04:31:52+00,1,,,,,183
-7915251.04336748,5202386.8603882,N_601230550253967501,Mattahunt BCYF,Q3AC-HQX7-ELUG,BCYF-Mattahunt-AP1,"100 Hebron St, Mattapan, MA 02126",42.2758263440001,-71.103909899,"['BCYF', 'recently-added']",2024/08/20 04:31:52+00,1,BCYF,,,,184
-7915251.04336748,5202386.8603882,N_601230550253967501,Mattahunt BCYF,Q3AC-EY52-2VC8,BCYF-Mattahunt-AP4,"100 Hebron St, Mattapan, MA 02126",42.2758263440001,-71.103909899,"['BCYF', 'recently-added']",2024/08/20 04:31:52+00,1,BCYF,,,,185
-7915251.04336748,5202386.8603882,N_601230550253967501,Mattahunt BCYF,Q3AC-GY58-QT3B,BCYF-Mattahunt-AP2,"100 Hebron St, Mattapan, MA 02126",42.2758263440001,-71.103909899,"['BCYF', 'recently-added']",2024/08/20 04:31:52+00,1,BCYF,,,,186
-7915251.04336748,5202386.8603882,N_601230550253967501,Mattahunt BCYF,Q3AC-PJCY-LDTD,BCYF-Mattahunt-AP5,"100 Hebron St, Mattapan, MA 02126",42.2758263440001,-71.103909899,"['BCYF', 'recently-added']",2024/08/20 04:31:52+00,1,BCYF,,,,187
-7911206.97435939,5208247.60718336,N_568579452955534204,Dorchester,Q2CK-CRWS-U8UK,DOT-BPL-AP1,"500 Columbia Rd., Dorchester, MA",42.314769336,-71.067581409,"['BPL', 'Outside', 'Uphams-Corner-Branch']",2024/08/20 04:31:39+00,1,BPL,,Outside,Uphams Corner Branch,188
-7910482.11727245,5218089.13727518,N_568579452955538062,Charlestown,Q2CK-V3LS-5V65,CHL-BCYF-AP2,"240 Medford St, Charlestown, MA 02129",42.3801093230001,-71.0610699069999,"['BCYF', 'BCYF-Grant', 'Charlestown-Athletic-Building', 'Outside']",2024/08/20 04:31:40+00,1,BCYF,,Outside,Charlestown Athletic Building,189
-7917084.04134615,5199005.76863077,N_568579452955538316,Hyde Park,Q2AK-MNV6-RH2P,HP-MAPLE-AP1,"Maple St., Hyde Park, MA - between Oak and River St.",42.253349,-71.120376,"['Hyde-Park', 'Outside']",2024/08/20 04:31:41+00,1,,,Outside,Hyde Park,190
-7914566.26151987,5208794.99403748,N_579275502070532581,Roxbury,Q2CK-BX25-DLJ2,BFD-E42-AP2,"1870 Columbus Ave., Roxbury, MA",42.3184053360001,-71.097758399,"['BFD', 'Engine-42', 'Outside', 'recently-added']",2024/08/20 04:31:43+00,1,BFD,,Outside,Engine 42,191
-7912165.76879964,5207724.63839437,N_579275502070532581,Roxbury,Q2CK-5W3E-RVCM,ROX-MLKSCHOOL-AP3,"77 Lawrence Ave., Roxbury, MA",42.3112953360001,-71.076194406,"['BPS', 'MLK', 'Outside']",2024/08/20 04:31:43+00,1,BPS,,Outside,MLK,192
-7912165.76879964,5207724.63839437,N_579275502070532581,Roxbury,Q2CK-6FWU-5RHA,ROX-MLKSCHOOL-AP1,"77 Lawrence Ave., Roxbury, MA",42.3112953360001,-71.076194406,"['BPS', 'MLK', 'Outside']",2024/08/20 04:31:43+00,1,BPS,,Outside,MLK,193
-7915251.04336748,5202386.8603882,N_601230550253967501,Mattahunt BCYF,Q3AC-SCN9-EVWL,BCYF-Mattahunt-AP3,"100 Hebron St, Mattapan, MA 02126",42.2758263440001,-71.103909899,"['BCYF', 'recently-added']",2024/08/20 04:31:52+00,1,BCYF,,,,194
-7914074.34113533,5201307.75105641,N_601230550253967543,Mattapan-Bus-stop,Q3AK-FN8J-HB93,Mattapan-Sq-AP-MR76,1624 Blue Hill Ave @ Mattapan Sq,42.2686533450001,-71.093339403,['Outside'],2024/08/20 04:31:53+00,1,,,Outside,,195
-7914162.50617203,5201296.91996516,N_601230550253967543,Mattapan-Bus-stop,Q3AK-DUG6-BDAZ,Fairway-st-AP-MR76,"1621 Blue Hill Ave, Mattapan, MA 02126",42.268581345,-71.0941314029999,['Outside'],2024/08/20 04:31:53+00,1,,,Outside,,196
-7910385.43651733,5215028.49123964,N_601230550253967564,2 Center Plaza,Q3KD-G9Q8-CHW3,2-Center-Plaza-AP4,"2 Center PlzBoston, MA 02108",42.359796327,-71.0602014089999,[],2024/08/20 04:31:53+00,1,,,,,197
-7910385.43651733,5215028.49123964,N_601230550253967564,2 Center Plaza,Q3KD-422C-5QAB,2-Center-Plaza-AP1,"2 Center PlzBoston, MA 02108",42.359796327,-71.0602014089999,[],2024/08/20 04:31:53+00,1,,,,,198
-7910385.43651733,5215028.49123964,N_601230550253967564,2 Center Plaza,Q3KD-8M2K-K8VZ,2-Center-Plaza-AP3,"2 Center PlzBoston, MA 02108",42.359796327,-71.0602014089999,[],2024/08/20 04:31:53+00,1,,,,,199
-7910385.43651733,5215028.49123964,N_601230550253967564,2 Center Plaza,Q3KD-FFKN-QBSN,2-Center-Plaza-AP5,"2 Center PlzBoston, MA 02108",42.359796327,-71.0602014089999,[],2024/08/20 04:31:53+00,1,,,,,200
-7910385.43651733,5215028.49123964,N_601230550253967564,2 Center Plaza,Q3KD-JRBT-MDCS,2-Center-Plaza-AP6,"2 Center PlzBoston, MA 02108",42.359796327,-71.0602014089999,[],2024/08/20 04:31:53+00,1,,,,,201
-7914619.86174336,5210876.43634881,L_601230550253962684,YEE Tremont,Q2FD-SWSB-V67K,BCYF_Tremont_YEE_3rd floor-AP1,"1483 Tremont St, Boston, MA",42.332229333,-71.098239898,"['DYEE', 'Inside']",2024/08/20 04:31:32+00,1,DYEE,,Inside,,202
-7910804.85788877,5214387.16720099,N_568579452955527921,Parks,Q3AK-DGSZ-GM7H,PARKS-COMMON-AP7,Boston Common,42.3555391341579,-71.0639691352844,[],2024/08/20 04:31:39+00,1,,,,,203
-7911261.09140135,5214273.70598713,N_568579452955527921,Parks,Q3AK-EK6U-T4FW,PARKS-COMMON-AP2,Boston Common,42.3547859337559,-71.0680675506592,[],2024/08/20 04:31:39+00,1,,,,,204
-7911344.73222925,5207975.28045542,N_568579452955534204,Dorchester,Q2CK-FQLH-FDJH,DOT-BPL-AP5,"63 Glendale St, Dorchester, MA",42.3129603360001,-71.068818909,"['BPL', 'Outside', 'Uphams-Corner-Branch']",2024/08/20 04:31:39+00,1,BPL,,Outside,Uphams Corner Branch,205
-7910482.11727245,5218089.13727518,N_568579452955538062,Charlestown,Q2CK-CWUY-RBGW,CHL-HIGHSCHOOL-AP1,"240 Medford St., Charlestown, MA",42.3801093230001,-71.0610699069999,"['BPS', 'Charlestown-High-School', 'Outside']",2024/08/20 04:31:40+00,1,BPS,,Outside,Charlestown High School,206
-7917511.77468966,5199474.76542107,N_568579452955538316,Hyde Park,Q2CK-NERF-4JX7,HP-BPDE18-AP2,"1249 Hyde Park Ave., Hyde Park, MA",42.2564673480001,-71.124218394,['recently-added'],2024/08/20 04:31:41+00,1,,,,,207
-7911905.78235153,5206868.44108136,N_568579452955534204,Dorchester,Q2CK-GMBW-WDLD,DOT-HOLLAND-AP1,"85 Olney St., Dorchester, MA",42.305607337,-71.073858908,"['BCYF', 'Holland-Comm-Center', 'Outside']",2024/08/20 04:31:39+00,1,BCYF,,Outside,Holland Comm Center,208
-7907045.68603882,5210858.81775077,N_568579452955537848,South Boston,Q2CK-NLQZ-E2SP,SB-PERRY-AP3,"745 E 7th St, South Boston, MA 02127",42.3321123310001,-71.03019992,"['BPS', 'Outside', 'Perry-School']",2024/08/20 04:31:40+00,1,BPS,,Outside,Perry School,209
-7917162.6212181,5199449.04657084,N_568579452955538316,Hyde Park,Q3AK-EQZ5-MHCW,HP-BCYF-AP1,"1179 River Street, Hyde Park, MA02136",42.256296348,-71.121081895,[],2024/08/20 04:31:41+00,1,,,,,210
-7919012.58295134,5213861.17758119,N_568579452955538703,Alston Brighton,Q2AK-PKLP-V45Q,AB-JACKSON-AP1,"40 Armington St., Allston, MA",42.3520473310001,-71.137700384,"['BPS', 'Jackson-Mann-School', 'Outside']",2024/08/20 04:31:41+00,1,BPS,,Outside,Jackson Mann School,211
-7919879.70579091,5213413.81305402,N_568579452955538703,Alston Brighton,Q2CK-SVB3-JPWM,AB-BRIGHTON-HIGH-AP2,"25 Warren St, Brighton, MA 02135",42.349077331,-71.1454898809999,"['BCYF-Grant', 'BPS', 'Brighton-High-School', 'Outside']",2024/08/20 04:31:41+00,1,BPS,,Outside,Brighton High School,212
-7919879.70579091,5213413.81305402,N_568579452955538703,Alston Brighton,Q2CK-SRAD-M7DC,AB-BRIGHTON-HIGH-AP1,"25 Warren St, Brighton, MA 02135",42.349077331,-71.1454898809999,"['BCYF-Grant', 'BPS', 'Brighton-High-School', 'Outside']",2024/08/20 04:31:41+00,1,BPS,,Outside,Brighton High School,213
-7913090.49947569,5208454.90590988,N_579275502070532581,Roxbury,Q2CK-FSAF-7UZR,ROX-BLA-AP1,"205 Townsend St., Roxbury, MA - west side of roof",42.316146336,-71.0845014029999,"['BPS', 'Boston-Latin-Academy', 'Outside']",2024/08/20 04:31:43+00,1,BPS,,Outside,Boston Latin Academy,214
-7911012.07389514,5214441.50915079,N_568579452955527921,Parks,Q3AK-DRLB-LEZF,PARKS-COMMON-AP5,Boston Common,42.3558998743113,-71.0658305883408,[],2024/08/20 04:31:39+00,1,,,,,215
-7909161.14553683,5205152.21518601,N_568579452955534204,Dorchester,Q2CK-S8TK-5BFB,DOT-MURPHY-AP1,"1 Worrell St, Dorchester, MA 02122",42.294204339,-71.049203416,"['BPS', 'Murphy-School', 'Outside']",2024/08/20 04:31:39+00,1,BPS,,Outside,Murphy School,216
-7911607.22358854,5205989.29364355,N_568579452955534204,Dorchester,Q2CK-649C-9H26,DOT-MARSHALL-AP1,"35 Westville St., Dorchester, MA",42.299766338,-71.071176909,"['BPS', 'Marshall-School', 'Outside', 'UP-Academy']",2024/08/20 04:31:39+00,1,BPS,,Outside,Marshall School UP Academy,217
-7909161.14553683,5205152.21518601,N_568579452955534204,Dorchester,Q2CK-FZJ6-67HG,DOT-MURPHY-AP2,"1 worrell st Dorchester, ma",42.294204339,-71.049203416,"['BCYF-Grant', 'BPS', 'Murphy-School', 'Outside']",2024/08/20 04:31:39+00,1,BPS,,Outside,Murphy School,218
-7910560.26411159,5206143.71427976,N_568579452955534204,Dorchester,Q2CK-L5SX-NBNQ,DOT-CLEVELAND-AP1,"11 Charles St, Dorchester",42.3007923380001,-71.061771912,['recently-added'],2024/08/20 04:31:39+00,1,,,,,219
-7910476.10657655,5207287.04694744,N_568579452955534204,Dorchester,Q2CK-NJQU-RB55,DOT-MATHER-AP3,"24 Parrish St, Dorchester",42.3083883370001,-71.061015912,['recently-added'],2024/08/20 04:31:39+00,1,,,,,220
-7912102.65075967,5205535.52841454,N_568579452955534204,Dorchester,Q2CK-H64X-BT93,DOT-HOLMES-AP1,"40 School St., Dorchester, MA",42.296751339,-71.075627407,"['BPS', 'Holmes-Elementary-School', 'Outside']",2024/08/20 04:31:39+00,1,BPS,,Outside,Holmes Elementary School,221
-7912662.19806883,5205505.7296573,N_568579452955534204,Dorchester,Q2CK-HALC-MWBH,DOT-GREENWOOD-AP1,"189 Glenway St., Dorchester, MA",42.2965533390001,-71.080653906,"['BPS', 'Greenwood-School', 'Outside']",2024/08/20 04:31:39+00,1,BPS,,Outside,Greenwood School,222
-7908680.74616299,5210971.30436346,N_568579452955537848,South Boston,Q2CK-D4R6-5UWB,SB-HIGHSCHOOL-AP3,"95 G St., South Boston, MA",42.3328593310001,-71.0448879149999,"['Outside', 'South-Boston-High-School']",2024/08/20 04:31:40+00,1,,,Outside,South Boston High School,223
-7910482.11727245,5218089.13727518,N_568579452955538062,Charlestown,Q2CK-SNTB-WJWA,CHL-HIGHSCHOOL-AP2,"240 Medford St, Charlestown, MA 02129",42.3801093230001,-71.0610699069999,"['BCYF-Grant', 'BPS', 'Charlestown-High-School', 'Outside']",2024/08/20 04:31:40+00,1,BPS,,Outside,Charlestown High School,224
-7917028.87084991,5199271.72391499,N_568579452955538316,Hyde Park,Q2AK-YCNF-9V29,HP-BFD48-AP1,"60 Fairmont Ave., Hyde Park, MA",42.255117349,-71.1198803949999,"['BFD', 'Engine-48', 'Outside']",2024/08/20 04:31:41+00,1,BFD,,Outside,Engine 48,225
-7922403.42918745,5213745.94545364,N_568579452955538703,Alston Brighton,Q2AK-HEMW-CKJN,AB-OAKSQUARE-AP1,"425 Faneuil St., Brighton, MA",42.351282332,-71.168160874,"['BFD', 'Engine-51', 'Outside']",2024/08/20 04:31:41+00,1,BFD,,Outside,Engine 51,226
-7911133.29824469,5214283.26061567,N_568579452955527921,Parks,Q3AK-CR6K-YPBC,PARKS-COMMON-AP4,Boston Common,42.3548493615062,-71.0669195652008,[],2024/08/20 04:31:39+00,1,,,,,227
-7916761.3698909,5208412.90399126,N_568579452955527921,Parks,Q2CK-7ANU-RF72,PARKS-JAMAICAPOND-AP1,"507 Jamaicaway, Jamaica Plain, MA - boat house",42.315867337,-71.1174773929999,"['Jamaica-Pond', 'Outside']",2024/08/20 04:31:39+00,1,,,Outside,Jamaica Pond,228
-7910954.14895964,5213995.42743103,N_568579452955527921,Parks,Q3AK-CR92-A992,PARKS-COMMON-AP1,Boston Common,42.3529385724438,-71.0653102397919,[],2024/08/20 04:31:39+00,1,,,,,229
-7916761.3698909,5208412.90399126,N_568579452955527921,Parks,Q2CD-6YGF-H7PW,PARKS-JAMAICAPOND-AP3,"507 Jamaicaway, Jamaica Plain, MA - inside boat house",42.315867337,-71.1174773929999,"['Jamaica-Pond', 'Outside']",2024/08/20 04:31:39+00,1,,,Outside,Jamaica Pond,230
-7910786.94296027,5214273.70598713,N_568579452955527921,Parks,Q3AK-DGWD-NEFT,PARKS-COMMON-AP10,Boston Common,42.3547859337559,-71.0638082027435,[],2024/08/20 04:31:39+00,1,,,,,231
-7910746.33578899,5214357.30898682,N_568579452955527921,Parks,Q3AK-CVAW-H5UM,PARKS-COMMON-AP9,Boston Common,42.355340924401,-71.0634434223175,[],2024/08/20 04:31:39+00,1,,,,,232
-7911206.97435939,5208247.60718336,N_568579452955534204,Dorchester,Q2CK-CVPA-TEUV,DOT-BPL-AP2,"500 Columbia Rd., Dorchester, MA",42.314769336,-71.067581409,"['BPL', 'Outside', 'Uphams-Corner-Branch']",2024/08/20 04:31:39+00,1,BPL,,Outside,Uphams Corner Branch,233
-7910507.76865774,5207244.56918254,N_568579452955534204,Dorchester,Q2CK-F72Z-RK25,DOT-MATHER-AP1,"1 Parish St., Dorchester, MA",42.3081061423888,-71.0613003373146,"['BPS', 'Mather-School', 'Outside']",2024/08/20 04:31:39+00,1,BPS,,Outside,Mather School,234
-7911206.97435939,5208247.60718336,N_568579452955534204,Dorchester,Q2CK-CXHG-U3Q7,DOT-BPL-AP3,"500 Columbia Rd., Dorchester, MA",42.314769336,-71.067581409,"['BPL', 'Outside', 'Uphams-Corner-Branch']",2024/08/20 04:31:39+00,1,BPL,,Outside,Uphams Corner Branch,235
-7911206.97435939,5208247.60718336,N_568579452955534204,Dorchester,Q2CK-J2D4-6Y8J,DOT-BPL-AP6,"500 Columbia road, Dorchester, ma",42.314769336,-71.067581409,"['BPL', 'Outside', 'Uphams-Corner-Branch']",2024/08/20 04:31:39+00,1,BPL,,Outside,Uphams Corner Branch,236
-7911206.97435939,5208247.60718336,N_568579452955534204,Dorchester,Q2CK-U4G7-7P78,DOT-BPL-AP4,"500 Columbia Rd., Dorchester, MA",42.314769336,-71.067581409,"['BPL', 'Outside', 'Uphams-Corner-Branch', 'recently-added']",2024/08/20 04:31:39+00,1,BPL,,Outside,Uphams Corner Branch,237
-7907045.68603882,5210858.81775077,N_568579452955537848,South Boston,Q2CK-LL7D-DRFS,SB-PERRY-AP2,"745 East 7th St., South Boston, MA",42.3321123310001,-71.03019992,"['BPS', 'Outside', 'Perry-School']",2024/08/20 04:31:40+00,1,BPS,,Outside,Perry School,238
-7912222.87558709,5210059.25306829,N_579275502070532581,Roxbury,Q2CK-ZXL4-AYZP,ROX-VINE-AP1,"339 Dudley St, Roxbury",42.326802334,-71.076707405,['recently-added'],2024/08/20 04:31:43+00,1,,,,,239
-7914619.86174336,5210876.43634881,L_601230550253962684,YEE Tremont,Q3AC-XY74-7QFU,BCYF_Tremont_YEE_2nd floor-BACK-AP4,"1483 Tremont St, Boston, MA",42.332229333,-71.098239898,"['DYEE', 'Inside']",2024/08/20 04:31:32+00,1,DYEE,,Inside,,240
-7916761.3698909,5208412.90399126,N_568579452955527921,Parks,Q2CK-7CSR-NUQK,PARKS-JAMAICAPOND-AP2,"507 Jamaicaway, Jamaica Plain, MA - bandstand",42.315867337,-71.1174773929999,"['Jamaica-Pond', 'Outside']",2024/08/20 04:31:39+00,1,,,Outside,Jamaica Pond,241
-7911215.70691581,5214475.54751494,N_568579452955527921,Parks,Q3AK-CRWB-RXVL,PARKS-COMMON-AP3,Boston Common,42.3561258313746,-71.0676598548889,[],2024/08/20 04:31:39+00,1,,,,,242
-7910801.27490307,5214372.83525819,N_568579452955527921,Parks,Q3AK-CQWK-ZYPY,PARKS-COMMON-AP8,Boston Common,42.3554439935526,-71.0639369487763,[],2024/08/20 04:31:39+00,1,,,,,243
-7917162.6212181,5199449.04657084,N_568579452955538316,Hyde Park,Q3AK-D639-ZQ76,HP-BCYF-AP2,"1179 River Street, Hyde Park, MA02136",42.256296348,-71.121081895,[],2024/08/20 04:31:41+00,1,,,,,244
-7914608.84111377,5210873.72583946,N_579275502070532581,Roxbury,Q2CK-SARQ-LX6F,ROX-Tobin-BCYF-AP1,"1481 Tremont St, Roxbury Crossing, MA 02120",42.332211333,-71.0981408979999,"['BCYF', 'BCYF-Grant', 'Outdoor', 'Tobin-Comm-Center']",2024/08/20 04:31:43+00,1,BCYF,,Outside,Tobin Comm Center,245
-7910723.06864423,5208782.79928088,N_568579452955534204,Dorchester,Q2CK-ZRF5-JNQU,DOT-BFD21-AP1,"641 Columbia Rd., Dorchester, MA",42.3183243350001,-71.06323441,"['BFD', 'Engine-21', 'Outside']",2024/08/20 04:31:39+00,1,BFD,,Outside,Engine 21,246
-7912724.81517108,5207217.95538464,N_579275502070532581,Roxbury,Q2CK-5HAA-H694,ROX-GROVEHALL-AP2,"41 Geneva Ave., Roxbury, MA",42.3079293370001,-71.081216405,"['BPL', 'Grove-Hall', 'Outside']",2024/08/20 04:31:43+00,1,BPL,,Outside,Grove Hall,247
-7913532.85362677,5208219.3978872,N_579275502070532581,Roxbury,Q2CK-BF8L-TU5P,ROX-TROTTER-AP2,"Humbolt & Waumbeck St., Roxbury, MA",42.3145819509434,-71.088475137949,"['BPS', 'Outside', 'Trotter-School']",2024/08/20 04:31:43+00,1,BPS,,Outside,Trotter School,248
-7912378.59105096,5208799.38903218,N_579275502070532581,Roxbury,Q2CK-7AFY-YUJ9,ROX-WINTHROP-AP5,"Woodbine and Blue Hill Ave., Roxbury, MA",42.3184345287643,-71.0781062208116,"['BPS', 'Outside', 'Winthrop-School']",2024/08/20 04:31:43+00,1,BPS,,Outside,Winthrop School,249
-7918837.75569105,5214128.25057343,N_568579452955538703,Alston Brighton,Q2CK-LVPP-KFQ4,AB-BFDE41-AP1,"460 Cambridge St

Boston, MA 02134",42.3538203300001,-71.136129884,['recently-added'],2024/08/20 04:31:41+00,1,,,,,250
-7914566.26151987,5208794.99403748,N_579275502070532581,Roxbury,Q2CK-CX6Z-DWFB,,"1870 Columbus Ave., Roxbury, MA",42.3184053360001,-71.097758399,"['BFD', 'Engine-42', 'Outside']",2024/08/20 04:31:43+00,1,BFD,,Outside,Engine 42,251
-7912222.87558709,5210059.25306829,N_579275502070532581,Roxbury,Q2CK-MP2Y-FAUQ,ROX-VINE-AP2,"339 Dudley St, Roxbury",42.326802334,-71.076707405,['recently-added'],2024/08/20 04:31:43+00,1,,,,,252
-7912222.87558709,5210059.25306829,N_579275502070532581,Roxbury,Q2CK-NJTU-PZA7,ROX-VINE-AP4,"339 Dudley St, Roxbury",42.326802334,-71.076707405,['recently-added'],2024/08/20 04:31:43+00,1,,,,,253
-7912078.10481195,5207385.94359047,N_579275502070532581,Roxbury,Q2CK-FC84-AQTJ,ROX-FREDERICK-AP2,"270 Columbia Rd., Dorchester, MA",42.309045337,-71.0754069069999,"['BPS', 'Frederick-Pilot-School', 'Outside']",2024/08/20 04:31:43+00,1,BPS,,Outside,Frederick Pilot School,254
-7914566.26151987,5208794.99403748,N_579275502070532581,Roxbury,Q2CK-2D9P-VKGR,ROX-BFDE42-AP1,"1870 Columbus Ave., Roxbury, MA",42.3184053360001,-71.097758399,"['BFD', 'Engine-42', 'Outside']",2024/08/20 04:31:43+00,1,BFD,,Outside,Engine 42,255
-7913304.96080709,5208572.98912321,N_579275502070532581,Roxbury,Q2CK-DFHP-VUSX,ROX-BLA-AP3,"Humbolt & Townsend St., Roxbury, MA",42.3169307006476,-71.0864279419184,"['BPS', 'Boston-Latin-Academy', 'Outside']",2024/08/20 04:31:43+00,1,BPS,,Outside,Boston Latin Academy,256
-7910170.53424036,5215103.06324401,N_601230550253961310,Downtown Boston - City Hall - Quincy Market,Q3AE-GDTR-3C3W,DT-CITYHALL-AP2,"One City Hall Sq
Boston MA 02201",42.360291327,-71.058270909,[],2024/08/20 04:31:44+00,1,,,,,257
-7910170.53424036,5215103.06324401,N_601230550253961310,Downtown Boston - City Hall - Quincy Market,Q3AE-MULH-9V9B,DT-CITYHALL-9th-Floor-Interior Ring,One City Hall Sq.  Boston MA 02201,42.360291327,-71.058270909,[],2024/08/20 04:31:44+00,1,,,,,258
-7910170.53424036,5215103.06324401,N_601230550253961310,Downtown Boston - City Hall - Quincy Market,Q3AE-JLUF-293V,DT-City Hall Front right side up stairs,One City Hall Sq  Boston MA 02201,42.360291327,-71.058270909,[],2024/08/20 04:31:44+00,1,,,,,259
-7907904.29282603,5216552.5880783,N_601230550253961436,East Boston,Q2CK-NQEV-RYEW,EB-154MAVERICK-AP1,"154 Maverick St, East Boston MA",42.369912324,-71.037912916,"['E-Boston-Main-Street', 'June2016', 'Outside', 'Private-residence', 'recently-added']",2024/08/20 04:31:44+00,1,,,Outside,E Boston Main Street June2016 Private residence,260
-7912356.62595528,5210580.99539578,N_579275502070532581,Roxbury,Q2CK-ZWAD-LVEM,ROX-ORCHARD-AP1,"906 Albany St., Roxbury, MA",42.3302673330001,-71.077908905,"['BPS', 'Orchard-Garden-School', 'Outside']",2024/08/20 04:31:43+00,1,BPS,,Outside,Orchard Garden School,261
-7912724.81517108,5207217.95538464,N_579275502070532581,Roxbury,Q2CK-LP79-KBBG,ROX-GROVEHALL-AP1,"41 Geneva Ave, Roxbury",42.3079293370001,-71.081216405,['recently-added'],2024/08/20 04:31:43+00,1,,,,,262
-7907933.84803951,5216907.88446422,N_601230550253961436,East Boston,Q2CK-NPNU-ZQAD,EB-10GOVE-AP1,"10 Gove St, Boston, MA 02128, USA",42.3722703240001,-71.0381784149999,"['E-Boston-Main-Street', 'June2016', 'Outside', 'Private-residence']",2024/08/20 04:31:44+00,1,,,Outside,E Boston Main Street June2016 Private residence,263
-7910789.19219912,5214370.92732604,N_601230550253961607,Maintenance,Q2CK-L3KB-8LWG,PARKS-COMMONWEST-AP4,"139 Tremont St, Boston, MA 02111",42.3554313280001,-71.0638284079999,['recently-added'],2024/08/20 04:31:46+00,1,,,,,264
-7908003.97931871,5216719.38586558,N_601230550253961436,East Boston,Q2CK-L58U-SANP,EB-BPDA7-AP2,"69 Paris Street, East Boston",42.371019324,-71.0388084149999,['recently-added'],2024/08/20 04:31:44+00,1,,,,,265
-7914619.86174336,5210876.43634881,N_601230550253961587,BCYF Tremont,Q2QD-U3LC-V2UB,BCYF-1st floor AP2 ,"1483 Tremont St, Boston, MA",42.332229333,-71.098239898,"['BCYF', 'Inside', 'employee']",2024/08/20 04:31:45+00,1,BCYF,,Inside,employee,266
-7913720.67889044,5209400.67907213,N_601230550253962329,BCYF Indoor,Q3AK-WNHT-9SSX,BCYF-Shelburne-MR76-AP1,"2730 Washington St., Boston, MA 02119",42.322428335,-71.090162401,[],2024/08/20 04:31:47+00,1,,,,,267
-7913800.32787478,5210827.64729927,N_601230550253962329,BCYF Indoor,Q2JD-XRRZ-NCRG,BCYF-Madison-AP1,"75 Malcolm X Blvd. Roxbury, MA - Admin office",42.3319053330001,-71.0908779,"['BCYF', 'BCYF-Grant', 'Inside', 'Madison-Park', 'Roxbury']",2024/08/20 04:31:47+00,1,BCYF,,Inside,Madison Park Roxbury,268
-7912918.67784166,5210704.32054461,N_601230550253966449,OPAT,Q3AC-ZNTZ-AXMN,OPAT-AP2,2201 Washington St Roxbury MA 02118,42.331086333,-71.082957903,[],2024/08/20 04:31:49+00,1,,,,,269
-7914619.86174336,5210876.43634881,N_601230550253961587,BCYF Tremont,Q2FD-6DML-BCZE,BCYF-CC Lobby,"1483 Tremont St Boston, MA",42.332229333,-71.098239898,"['BCYF', 'Inside', 'employee']",2024/08/20 04:31:45+00,1,BCYF,,Inside,employee,270
-7910226.09279634,5213593.45960613,N_601230550253966985,NOC-TEST,Q3AK-ERU5-PXQY,Egleston-MR76-AP2,,42.35027,-71.05877,['recently-added'],2024/08/20 04:31:52+00,1,,,,,271
-7911026.63689562,5208425.09782009,N_601230550253965255,Strand Theatre - External,Q2QD-86JE-GS2B,Strand_Marquee support right,"543 Columbia Road
Boston, MA 02125",42.315948335,-71.0659614099999,['Outside'],2024/08/20 04:31:48+00,1,,,Outside,,272
-7911026.63689562,5208425.09782009,N_601230550253965256,Strand Theatre - Internal,Q2KD-363A-MRZV,Strand_Camera room office left,"543 Columbia Rd, Boston, MA 02125",42.315948335,-71.0659614099999,['Inside'],2024/08/20 04:31:49+00,1,,,Inside,,273
-7911026.63689562,5208425.09782009,N_601230550253965256,Strand Theatre - Internal,Q2LD-ENHA-3CRX,Strand_F.O.H,"543 Columbia Rd, Boston, MA 02125",42.315948335,-71.0659614099999,['Inside'],2024/08/20 04:31:49+00,1,,,Inside,,274
-7911026.63689562,5208425.09782009,N_601230550253965256,Strand Theatre - Internal,Q2KD-DQJU-LYTD,Strand_Stage Left,"543 Columbia Rd, Boston, MA 02125",42.315948335,-71.0659614099999,['Inside'],2024/08/20 04:31:49+00,1,,,Inside,,275
-7910170.53424036,5215103.06324401,N_601230550253966673,Downtown Boston - City Hall Plaza and Pavilion,Q3AE-QMTD-57LD,2nd Floor North Entrance,"1 City Hall Plaza, 
Boston, MA  02201",42.360291327,-71.058270909,['City-Hall'],2024/08/20 04:31:51+00,1,,,,City Hall,276
-7907596.71740692,5210407.52962179,N_601230550253966945,BCYF-Curley,Q3AC-2A4K-G5SA,BCYF-CURLEY-AP8,"1663 Columbia Rd, Boston, MA 02127",42.3291153320001,-71.0351499189999,"['BCYF', 'Inside', 'UXI', 'employee']",2024/08/20 04:31:51+00,1,BCYF,,Inside,UXI employee,277
-7907596.71740692,5210407.52962179,N_601230550253966945,BCYF-Curley,Q3AC-RKPB-2QNG,BCYF-CURLEY-AP1,"1663 Columbia Rd, Boston, MA 02127",42.3291153320001,-71.0351499189999,"['BCYF', 'Inside', 'UXI', 'employee']",2024/08/20 04:31:51+00,1,BCYF,,Inside,UXI employee,278
-7910170.53424036,5215103.06324401,N_601230550253966673,Downtown Boston - City Hall Plaza and Pavilion,Q3AE-Q4LQ-6HK3,AP-MR86-CS-09,"1 City Hall Square, Boston, MA 02201",42.360291327,-71.058270909,['City-Hall'],2024/08/20 04:31:51+00,1,,,,City Hall,279
-7907596.71740692,5210407.52962179,N_601230550253966945,BCYF-Curley,Q3AC-DCVF-HE6K,BCYF-CURLEY-AP7,"1663 Columbia Rd, Boston, MA 02127",42.3291153320001,-71.0351499189999,"['BCYF', 'Inside', 'UXI', 'employee']",2024/08/20 04:31:51+00,1,BCYF,,Inside,UXI employee,280
-7910385.43651733,5215028.49123964,N_601230550253967564,2 Center Plaza,Q3KD-4QBJ-GGUC,2-Center-Plaza-AP2,"2 Center PlzBoston, MA 02108",42.359796327,-71.0602014089999,[],2024/08/20 04:31:53+00,1,,,,,281
-7914619.86174336,5210876.43634881,L_601230550253962684,YEE Tremont,Q2FD-SU8V-RAXB,BCYF_Tremont_YEE_2nd floor-AP2,"1483 Tremont St, Boston, MA",42.332229333,-71.098239898,"['DYEE', 'Inside']",2024/08/20 04:31:32+00,1,DYEE,,Inside,,282
-7914619.86174336,5210876.43634881,L_601230550253962684,YEE Tremont,Q2FD-Z652-S5PF,BCYF_Tremont_YEE_2nd floor-AP1,"1483 Tremont St, Boston, MA",42.332229333,-71.098239898,"['DYEE', 'Inside']",2024/08/20 04:31:32+00,1,DYEE,,Inside,,283
-7914619.86174336,5210876.43634881,L_601230550253962684,YEE Tremont,Q2FD-YZLD-HNUS,BCYF_Tremont_YEE_2nd floor-AP3,"1483 Tremont St, Boston, MA",42.332229333,-71.098239898,"['DYEE', 'Inside']",2024/08/20 04:31:32+00,1,DYEE,,Inside,,284
-7909613.51514324,5217120.98529075,L_601230550253962688,Navy Yard,Q2EK-R989-H6FG,NavyYard-AP3,Navy yard Cambridge,42.3736845704699,-71.053267121315,[],2024/08/20 04:31:33+00,1,,,,,285
-7909614.11230752,5217126.3597693,L_601230550253962688,Navy Yard,Q2EK-HAXQ-8XW4,NavyYard-AP2,Navy yard Cambridge,42.3737202378565,-71.053272485733,[],2024/08/20 04:31:33+00,1,,,,,286
-7909615.90380037,5217135.31723356,L_601230550253962688,Navy Yard,Q2EK-7S8P-KQQL,NavyYard-AP1,navy yard cambridge,42.373779683456,-71.0532885789871,[],2024/08/20 04:31:33+00,1,,,,,287
,,N_568579452955538316,Hyde Park,Q2CK-KB3U-MCEQ,,,,,['recently-added'],2024/08/20 04:31:41+00,1,,,,,288
-7912165.76879964,5207724.63839437,N_579275502070532581,Roxbury,Q2CK-5YEE-273N,ROX-MLKSCHOOL-AP2,"77 Lawrence Ave., Roxbury, MA",42.3112953360001,-71.076194406,"['BPS', 'MLK', 'Outside']",2024/08/20 04:31:43+00,1,BPS,,Outside,MLK,289
-7909895.97384932,5215084.65508409,N_601230550253961310,Downtown Boston - City Hall - Quincy Market,Q3AE-Q7YG-V974,DT-QUINCYMARKET-AP1,"Faneuil Hall Marketplace
Boston MA 02201",42.36016913621,-71.0558044910431,[],2024/08/20 04:31:44+00,1,,,,,290
-7910789.19219912,5214370.92732604,N_601230550253961607,Maintenance,Q2CK-NK2U-62SL,PARKS-COMMONEAST-AP2,"139 Tremont St, Boston, MA 02111",42.3554313280001,-71.0638284079999,"['Boston-Common', 'recently-added']",2024/08/20 04:31:46+00,1,,,,Boston Common,291
-7910789.19219912,5214370.92732604,N_601230550253961607,Maintenance,Q2EK-WDLM-65C6,PARKS-COMMONEAST-AP4 ,"139 Tremont St, Boston, MA 02111",42.3554313280001,-71.0638284079999,"['Boston-Common', 'recently-added']",2024/08/20 04:31:46+00,1,,,,Boston Common,292
-7910789.19219912,5214370.92732604,N_601230550253961607,Maintenance,Q2CK-N8A5-VD4F,PARKS-COMMONWEST-AP3,"139 Tremont St, Boston, MA 02111",42.3554313280001,-71.0638284079999,['recently-added'],2024/08/20 04:31:46+00,1,,,,,293
-7912997.3250619,5210562.02243848,N_601230550253961809,Bolling,Q2FD-MTWE-FN62,BOL-WELCOMELOBBY-AP1,"2300 Washington St., Roxbury 02119",42.330141333,-71.0836644029999,"['Bolling', 'CoB-Employee', 'Inside']",2024/08/20 04:31:46+00,1,,,Inside,Bolling CoB Employee,294
-7912997.3250619,5210562.02243848,N_601230550253961809,Bolling,Q2FD-6RML-C4S6,BOL-SCHLOBBY-AP1,"2300 Washington St., Roxbury 02119",42.330141333,-71.0836644029999,"['Bolling', 'CoB-Employee', 'Inside']",2024/08/20 04:31:46+00,1,,,Inside,Bolling CoB Employee,295
-7912997.3250619,5210562.02243848,N_601230550253961809,Bolling,Q2FD-3YYZ-LW7E,BOL-PUBLOBBY-AP1,"2300 Washington St., Roxbury 02119",42.330141333,-71.0836644029999,"['Bolling', 'Inside']",2024/08/20 04:31:46+00,1,,,Inside,Bolling,296
-7912997.3250619,5210562.02243848,N_601230550253961809,Bolling,Q2FD-3Q7F-9C4J,BOL-FOYER-AP1,"2300 Washington St., Roxbury 02119",42.330141333,-71.0836644029999,"['Bolling', 'CoB-Employee', 'Inside']",2024/08/20 04:31:46+00,1,,,Inside,Bolling CoB Employee,297
